{
"type": "FeatureCollection",
"name": "alakoulut_alueet",
"features": [
{ "type": "Feature", "properties": { "Koulu": "Itä-Hakkila", "Tunnus": "Itä-Hakkilan koulu" }, "geometry": { "type": "Polygon", "coordinates": [ [ [ 25.1695873, 60.3114965 ], [ 25.1398536, 60.319379 ], [ 25.1356553, 60.3204835 ], [ 25.1356514, 60.3204812 ], [ 25.1264685, 60.3160209 ], [ 25.1140543, 60.3105338 ], [ 25.1086066, 60.312993 ], [ 25.1061591, 60.3103696 ], [ 25.1030758, 60.3102807 ], [ 25.1009622, 60.3075245 ], [ 25.0976267, 60.3070609 ], [ 25.0952939, 60.3088453 ], [ 25.0938355, 60.3081562 ], [ 25.0942051, 60.3058524 ], [ 25.0918536, 60.3035981 ], [ 25.0863867, 60.2992798 ], [ 25.0852789, 60.2964783 ], [ 25.0835625, 60.2937118 ], [ 25.0810003, 60.2882408 ], [ 25.0808834, 60.2878441 ], [ 25.0933267, 60.2851878 ], [ 25.0923082, 60.2814241 ], [ 25.0922766, 60.2813704 ], [ 25.1008464, 60.2801421 ], [ 25.1013354, 60.2805407 ], [ 25.1031795, 60.28299 ], [ 25.1036181, 60.2834161 ], [ 25.1042197, 60.2835412 ], [ 25.1044427, 60.283675 ], [ 25.1044435, 60.2836755 ], [ 25.1044028, 60.2827626 ], [ 25.1050321, 60.2821423 ], [ 25.104443, 60.2818863 ], [ 25.1039528, 60.2811102 ], [ 25.1053003, 60.2807743 ], [ 25.1062899, 60.280688 ], [ 25.1073275, 60.2820835 ], [ 25.1082312, 60.28204 ], [ 25.1093783, 60.2818325 ], [ 25.1096923, 60.2813549 ], [ 25.109892, 60.2810057 ], [ 25.1110836, 60.281254 ], [ 25.1119889, 60.2816736 ], [ 25.1132091, 60.281872 ], [ 25.1137506, 60.2818876 ], [ 25.113751, 60.2818707 ], [ 25.1164691, 60.2805193 ], [ 25.1182154, 60.2791227 ], [ 25.1256228, 60.2791742 ], [ 25.1273885, 60.2770015 ], [ 25.1282603, 60.2765831 ], [ 25.1291051, 60.2752358 ], [ 25.1308538, 60.2701047 ], [ 25.1317613, 60.2693722 ], [ 25.1317111, 60.2693075 ], [ 25.1337226, 60.2643483 ], [ 25.1400744, 60.2599762 ], [ 25.1442383, 60.2609128 ], [ 25.1440875, 60.2613165 ], [ 25.1440448, 60.261438 ], [ 25.1423587, 60.2633066 ], [ 25.1417299, 60.2648122 ], [ 25.1418651, 60.2655837 ], [ 25.1430983, 60.2658249 ], [ 25.1418879, 60.2683041 ], [ 25.1424902, 60.2697382 ], [ 25.1425104, 60.2697865 ], [ 25.1723577, 60.2764416 ], [ 25.1737541, 60.2782682 ], [ 25.1748028, 60.2783393 ], [ 25.1785405, 60.2777844 ], [ 25.1876263, 60.2798956 ], [ 25.1930596, 60.2922633 ], [ 25.1695873, 60.3114965 ] ] ] } },
{ "type": "Feature", "properties": { "Koulu": "Askisto", "Tunnus": "Askiston koulu" }, "geometry": { "type": "Polygon", "coordinates": [ [ [ 24.824026, 60.2905066 ], [ 24.8239348, 60.2916353 ], [ 24.8101667, 60.3080786 ], [ 24.7609654, 60.3252333 ], [ 24.7717758, 60.2992431 ], [ 24.7715554, 60.2983575 ], [ 24.764913, 60.271249 ], [ 24.7652242, 60.270595 ], [ 24.765473, 60.2700716 ], [ 24.7656249, 60.2701602 ], [ 24.7667832, 60.269692 ], [ 24.7699736, 60.2683512 ], [ 24.7684901, 60.2668858 ], [ 24.7671186, 60.2663132 ], [ 24.7679676, 60.2643416 ], [ 24.7679088, 60.2638542 ], [ 24.7677541, 60.2636896 ], [ 24.7679312, 60.2634902 ], [ 24.7691216, 60.262143 ], [ 24.7691629, 60.2621475 ], [ 24.7702399, 60.2624173 ], [ 24.7711561, 60.262454 ], [ 24.7745503, 60.264398 ], [ 24.7778573, 60.2644735 ], [ 24.7778609, 60.2644735 ], [ 24.7778816, 60.2643165 ], [ 24.780806, 60.2615857 ], [ 24.789102, 60.2637268 ], [ 24.7902786, 60.2637937 ], [ 24.7902783, 60.2637942 ], [ 24.7903328, 60.2637819 ], [ 24.7920678, 60.2652521 ], [ 24.793467, 60.2652376 ], [ 24.7929058, 60.2654643 ], [ 24.7908345, 60.2664489 ], [ 24.7900668, 60.2669036 ], [ 24.7945302, 60.2686394 ], [ 24.7942221, 60.2689809 ], [ 24.7897818, 60.2704808 ], [ 24.7911167, 60.2720865 ], [ 24.7905745, 60.2735566 ], [ 24.7961815, 60.2730802 ], [ 24.8019453, 60.2735466 ], [ 24.8041924, 60.2740476 ], [ 24.8034677, 60.2765216 ], [ 24.802397, 60.2780566 ], [ 24.7954006, 60.2814923 ], [ 24.8036297, 60.2881686 ], [ 24.8097068, 60.2898745 ], [ 24.8123455, 60.2894914 ], [ 24.8158782, 60.2882148 ], [ 24.8170516, 60.2880564 ], [ 24.8191474, 60.2881351 ], [ 24.8235371, 60.2889207 ], [ 24.824026, 60.2905066 ] ] ] } },
{ "type": "Feature", "properties": { "Koulu": "Ylästö", "Tunnus": "Ylästön koulu" }, "geometry": { "type": "Polygon", "coordinates": [ [ [ 24.9167019, 60.3036859 ], [ 24.9083647, 60.3035969 ], [ 24.9058407, 60.3041502 ], [ 24.9001281, 60.3066556 ], [ 24.8949684, 60.3076556 ], [ 24.8925539, 60.3082885 ], [ 24.8903123, 60.3093224 ], [ 24.8893737, 60.3085779 ], [ 24.8869697, 60.307602 ], [ 24.8852261, 60.3070773 ], [ 24.8837437, 60.3062024 ], [ 24.8826191, 60.3045745 ], [ 24.8824374, 60.3018409 ], [ 24.8839742, 60.3000098 ], [ 24.8841405, 60.2994272 ], [ 24.8840661, 60.2956952 ], [ 24.8859154, 60.2926465 ], [ 24.8856612, 60.2921688 ], [ 24.8879667, 60.2911147 ], [ 24.8881486, 60.2889161 ], [ 24.8876279, 60.2875212 ], [ 24.8861987, 60.2852536 ], [ 24.8857468, 60.2834188 ], [ 24.8840431, 60.2799143 ], [ 24.8836166, 60.2760339 ], [ 24.8828298, 60.2754957 ], [ 24.881887, 60.2739358 ], [ 24.8802484, 60.272828 ], [ 24.8802904, 60.2719967 ], [ 24.8823424, 60.2717274 ], [ 24.883176, 60.271626 ], [ 24.8840584, 60.2709489 ], [ 24.8847709, 60.2691122 ], [ 24.8855712, 60.2682478 ], [ 24.8870405, 60.2677674 ], [ 24.8886974, 60.2681247 ], [ 24.8925547, 60.2684932 ], [ 24.8927674, 60.2684314 ], [ 24.8927964, 60.2685431 ], [ 24.8972059, 60.2685892 ], [ 24.9043659, 60.2699805 ], [ 24.9077817, 60.2708586 ], [ 24.9101341, 60.2708474 ], [ 24.911816, 60.2719712 ], [ 24.9203245, 60.2731267 ], [ 24.9250344, 60.2749591 ], [ 24.9312191, 60.2750024 ], [ 24.9384337, 60.2764279 ], [ 24.9383771, 60.2764785 ], [ 24.9347115, 60.2795673 ], [ 24.9366652, 60.2801043 ], [ 24.9347042, 60.2816437 ], [ 24.9350451, 60.2827457 ], [ 24.9304068, 60.2865546 ], [ 24.9304538, 60.2882097 ], [ 24.93378, 60.2918083 ], [ 24.9295916, 60.2930827 ], [ 24.9228963, 60.2945531 ], [ 24.9175658, 60.2947555 ], [ 24.9171982, 60.2959168 ], [ 24.9196102, 60.2962975 ], [ 24.9213602, 60.297122 ], [ 24.9170925, 60.2992947 ], [ 24.9166813, 60.3036679 ], [ 24.9167019, 60.3036859 ] ] ] } },
{ "type": "Feature", "properties": { "Koulu": "Keimolanmäki", "Tunnus": "Keimolanmäen koulu" }, "geometry": { "type": "Polygon", "coordinates": [ [ [ 24.8305269, 60.3224756 ], [ 24.83052, 60.3224753 ], [ 24.8233383, 60.3284462 ], [ 24.8219224, 60.3304707 ], [ 24.8197955, 60.3340141 ], [ 24.8171536, 60.33819 ], [ 24.812906, 60.3437567 ], [ 24.8094816, 60.3503377 ], [ 24.8082287, 60.3569533 ], [ 24.8082079, 60.3604995 ], [ 24.8092016, 60.365472 ], [ 24.8102688, 60.3688297 ], [ 24.8107837, 60.3690247 ], [ 24.8103215, 60.3692643 ], [ 24.8110811, 60.3700451 ], [ 24.8140779, 60.3757344 ], [ 24.8147228, 60.3814461 ], [ 24.8142761, 60.3838993 ], [ 24.8142714, 60.3839166 ], [ 24.8138713, 60.383656 ], [ 24.8070175, 60.3791897 ], [ 24.7830427, 60.3635302 ], [ 24.7831691, 60.3587093 ], [ 24.7821609, 60.3588465 ], [ 24.7819364, 60.3588771 ], [ 24.7804122, 60.3618025 ], [ 24.7657802, 60.3521674 ], [ 24.7492565, 60.3417952 ], [ 24.7470118, 60.3268767 ], [ 24.7462097, 60.3222861 ], [ 24.760901, 60.3253881 ], [ 24.7609654, 60.3252333 ], [ 24.8101667, 60.3080786 ], [ 24.8239348, 60.2916353 ], [ 24.824026, 60.2905066 ], [ 24.8235052, 60.2888175 ], [ 24.8245709, 60.2869641 ], [ 24.8270558, 60.2849536 ], [ 24.828432, 60.2845174 ], [ 24.8285282, 60.2845062 ], [ 24.8285283, 60.2845063 ], [ 24.8326434, 60.2866383 ], [ 24.835175, 60.2881006 ], [ 24.8401681, 60.2913852 ], [ 24.8419548, 60.2920132 ], [ 24.8456657, 60.2923492 ], [ 24.8548373, 60.2922106 ], [ 24.8568584, 60.2925572 ], [ 24.8574722, 60.2927692 ], [ 24.8541631, 60.2966376 ], [ 24.8509003, 60.2986762 ], [ 24.8473456, 60.3016643 ], [ 24.8457071, 60.3040846 ], [ 24.844923, 60.3079782 ], [ 24.8430867, 60.3116331 ], [ 24.8386271, 60.3158254 ], [ 24.8383121, 60.3159723 ], [ 24.8347696, 60.3190946 ], [ 24.8348025, 60.3190952 ], [ 24.8346507, 60.3191479 ], [ 24.8345159, 60.3192544 ], [ 24.8345429, 60.3192533 ], [ 24.8340651, 60.3194012 ], [ 24.8314686, 60.3215447 ], [ 24.8306036, 60.3221515 ], [ 24.8305269, 60.3224756 ] ] ] } },
{ "type": "Feature", "properties": { "Koulu": "Kivimäki", "Tunnus": "Kivimäen koulu" }, "geometry": { "type": "Polygon", "coordinates": [ [ [ 24.8526234, 60.2725685 ], [ 24.8537229, 60.2726217 ], [ 24.853732, 60.2734933 ], [ 24.8547932, 60.2741404 ], [ 24.8582535, 60.2736993 ], [ 24.858103, 60.2734459 ], [ 24.8631349, 60.2727601 ], [ 24.8701674, 60.2740465 ], [ 24.8736967, 60.2737823 ], [ 24.8773612, 60.2727485 ], [ 24.8801429, 60.2726142 ], [ 24.8802592, 60.2726136 ], [ 24.8802484, 60.272828 ], [ 24.881887, 60.2739358 ], [ 24.8828298, 60.2754957 ], [ 24.8836166, 60.2760339 ], [ 24.8840431, 60.2799143 ], [ 24.8857468, 60.2834188 ], [ 24.8861987, 60.2852536 ], [ 24.8876279, 60.2875212 ], [ 24.8881486, 60.2889161 ], [ 24.8879667, 60.2911147 ], [ 24.8856612, 60.2921688 ], [ 24.8859154, 60.2926465 ], [ 24.8840661, 60.2956952 ], [ 24.8841109, 60.2979414 ], [ 24.8811486, 60.2979517 ], [ 24.8741403, 60.2977583 ], [ 24.8696924, 60.2969885 ], [ 24.8568584, 60.2925572 ], [ 24.8548373, 60.2922106 ], [ 24.8456657, 60.2923492 ], [ 24.8431333, 60.2921199 ], [ 24.8491891, 60.2854281 ], [ 24.8514807, 60.2825219 ], [ 24.8529181, 60.2795136 ], [ 24.8529629, 60.2785845 ], [ 24.8519244, 60.2743615 ], [ 24.8526234, 60.2725685 ] ] ] } },
{ "type": "Feature", "properties": { "Koulu": "Kaivoksela", "Tunnus": "Kaivokselan koulu" }, "geometry": { "type": "Polygon", "coordinates": [ [ [ 24.8546524, 60.2637497 ], [ 24.854702, 60.263658 ], [ 24.8546568, 60.2636577 ], [ 24.855008, 60.2591973 ], [ 24.8550066, 60.2591972 ], [ 24.8498306, 60.2590604 ], [ 24.849979, 60.2578727 ], [ 24.8518668, 60.2578392 ], [ 24.8519901, 60.2570082 ], [ 24.8513459, 60.2567937 ], [ 24.8512532, 60.2561643 ], [ 24.8504173, 60.2560802 ], [ 24.8499924, 60.2558509 ], [ 24.8571115, 60.2538128 ], [ 24.8577866, 60.2536195 ], [ 24.8624656, 60.2531544 ], [ 24.8638648, 60.2537494 ], [ 24.8642813, 60.2539271 ], [ 24.864601, 60.2537053 ], [ 24.8656433, 60.2533024 ], [ 24.8666608, 60.2532872 ], [ 24.8671055, 60.2531628 ], [ 24.8675305, 60.252738 ], [ 24.867606, 60.2525091 ], [ 24.8678481, 60.2523902 ], [ 24.8687367, 60.253278 ], [ 24.8723888, 60.2541544 ], [ 24.8771984, 60.2602854 ], [ 24.8913793, 60.2664048 ], [ 24.8924357, 60.2671534 ], [ 24.8927674, 60.2684314 ], [ 24.8925547, 60.2684932 ], [ 24.8886974, 60.2681247 ], [ 24.8870405, 60.2677674 ], [ 24.8855712, 60.2682478 ], [ 24.8847709, 60.2691122 ], [ 24.8840584, 60.2709489 ], [ 24.883176, 60.271626 ], [ 24.8823424, 60.2717274 ], [ 24.8802904, 60.2719967 ], [ 24.8802592, 60.2726136 ], [ 24.8801429, 60.2726142 ], [ 24.8773612, 60.2727485 ], [ 24.8736967, 60.2737823 ], [ 24.8701674, 60.2740465 ], [ 24.8631349, 60.2727601 ], [ 24.8616593, 60.2729612 ], [ 24.8614366, 60.2724725 ], [ 24.8605377, 60.271092 ], [ 24.8589469, 60.2691463 ], [ 24.8579743, 60.2689475 ], [ 24.8582498, 60.2668309 ], [ 24.858384, 60.2666954 ], [ 24.8584441, 60.2656332 ], [ 24.8586187, 60.2637846 ], [ 24.8546524, 60.2637497 ] ] ] } },
{ "type": "Feature", "properties": { "Koulu": "Kartanonkoski", "Tunnus": "Kartanonkosken koulu" }, "geometry": { "type": "Polygon", "coordinates": [ [ [ 24.9783215, 60.282175 ], [ 24.9783049, 60.2821634 ], [ 24.9728952, 60.282599 ], [ 24.9705224, 60.2838238 ], [ 24.9701337, 60.2828535 ], [ 24.9673777, 60.2829426 ], [ 24.9673495, 60.2830099 ], [ 24.965932, 60.2830488 ], [ 24.9637191, 60.2823444 ], [ 24.9631189, 60.2829683 ], [ 24.963061, 60.2831939 ], [ 24.9628214, 60.2836687 ], [ 24.9620201, 60.2837932 ], [ 24.9611355, 60.2836326 ], [ 24.9586969, 60.2832282 ], [ 24.9589708, 60.2840594 ], [ 24.9554554, 60.2841652 ], [ 24.9534842, 60.2830306 ], [ 24.9550763, 60.2815944 ], [ 24.9548195, 60.281406 ], [ 24.95283, 60.2809155 ], [ 24.9477264, 60.2784348 ], [ 24.9490318, 60.2781911 ], [ 24.952667, 60.2782337 ], [ 24.9531764, 60.2770982 ], [ 24.9542727, 60.2767703 ], [ 24.9561407, 60.2764453 ], [ 24.956794, 60.2756873 ], [ 24.9557407, 60.2733551 ], [ 24.9564498, 60.2719471 ], [ 24.9599444, 60.269428 ], [ 24.9602181, 60.2683662 ], [ 24.9655203, 60.266367 ], [ 24.9687126, 60.2656714 ], [ 24.9711475, 60.2646195 ], [ 24.9731981, 60.264463 ], [ 24.9757156, 60.2650248 ], [ 24.9755698, 60.2663986 ], [ 24.9781474, 60.2679498 ], [ 24.975369, 60.2697189 ], [ 24.9770558, 60.2715661 ], [ 24.9773101, 60.273831 ], [ 24.9807455, 60.2759266 ], [ 24.9808819, 60.2775333 ], [ 24.9818971, 60.2780266 ], [ 24.9822555, 60.2787619 ], [ 24.9823795, 60.2790163 ], [ 24.9837288, 60.2797109 ], [ 24.9847068, 60.2796794 ], [ 24.9838583, 60.2801356 ], [ 24.9823994, 60.2808241 ], [ 24.98216, 60.2812634 ], [ 24.979099, 60.281916 ], [ 24.9783215, 60.282175 ] ] ] } },
{ "type": "Feature", "properties": { "Koulu": "Veromäki", "Tunnus": "Veromäen koulu" }, "geometry": { "type": "Polygon", "coordinates": [ [ [ 24.9534662, 60.3330346 ], [ 24.9431877, 60.3308464 ], [ 24.9298037, 60.3246159 ], [ 24.9159511, 60.3181324 ], [ 24.9151772, 60.3174589 ], [ 24.9153335, 60.317043 ], [ 24.9189975, 60.3124244 ], [ 24.9213563, 60.3098528 ], [ 24.9222266, 60.3092277 ], [ 24.9229569, 60.3087917 ], [ 24.9213329, 60.3077413 ], [ 24.9166813, 60.3036679 ], [ 24.9170925, 60.2992947 ], [ 24.9213602, 60.297122 ], [ 24.9196102, 60.2962975 ], [ 24.9171982, 60.2959168 ], [ 24.9175658, 60.2947555 ], [ 24.9228963, 60.2945531 ], [ 24.9295916, 60.2930827 ], [ 24.93378, 60.2918083 ], [ 24.9304538, 60.2882097 ], [ 24.9304068, 60.2865546 ], [ 24.9350451, 60.2827457 ], [ 24.9347042, 60.2816437 ], [ 24.9366652, 60.2801043 ], [ 24.9347115, 60.2795673 ], [ 24.9383771, 60.2764785 ], [ 24.9384337, 60.2764279 ], [ 24.9401544, 60.2767679 ], [ 24.9465585, 60.2786529 ], [ 24.9477264, 60.2784348 ], [ 24.95283, 60.2809155 ], [ 24.9548195, 60.281406 ], [ 24.9550763, 60.2815944 ], [ 24.9534842, 60.2830306 ], [ 24.9554554, 60.2841652 ], [ 24.9589708, 60.2840594 ], [ 24.9586969, 60.2832282 ], [ 24.9611355, 60.2836326 ], [ 24.9620201, 60.2837932 ], [ 24.9628214, 60.2836687 ], [ 24.963061, 60.2831939 ], [ 24.9631189, 60.2829683 ], [ 24.9637191, 60.2823444 ], [ 24.965932, 60.2830488 ], [ 24.9673495, 60.2830099 ], [ 24.9673777, 60.2829426 ], [ 24.9701337, 60.2828535 ], [ 24.9705224, 60.2838238 ], [ 24.9728952, 60.282599 ], [ 24.9783049, 60.2821634 ], [ 24.9783215, 60.282175 ], [ 24.979099, 60.281916 ], [ 24.98216, 60.2812634 ], [ 24.9823994, 60.2808241 ], [ 24.9838583, 60.2801356 ], [ 24.9847068, 60.2796794 ], [ 24.9850005, 60.2796699 ], [ 24.9857654, 60.2798709 ], [ 24.9897673, 60.2796987 ], [ 24.993485, 60.2812867 ], [ 24.9956496, 60.2813457 ], [ 24.9996625, 60.2847158 ], [ 24.9999181, 60.2859105 ], [ 24.9950216, 60.2871875 ], [ 24.9919761, 60.2881078 ], [ 24.9878729, 60.2899335 ], [ 24.985879, 60.2897689 ], [ 24.9849699, 60.2895961 ], [ 24.9846028, 60.2894193 ], [ 24.9833401, 60.2895183 ], [ 24.9829706, 60.2898714 ], [ 24.9821097, 60.2906942 ], [ 24.9846081, 60.2956126 ], [ 24.9851748, 60.2964162 ], [ 24.9896424, 60.3000398 ], [ 24.9916794, 60.3022023 ], [ 24.9939177, 60.3044295 ], [ 24.9898882, 60.308768 ], [ 24.9893458, 60.308772 ], [ 24.984589, 60.313026 ], [ 24.9834061, 60.3158173 ], [ 24.9756654, 60.3232344 ], [ 24.9759611, 60.3260007 ], [ 24.9778096, 60.3268746 ], [ 24.9806201, 60.3277745 ], [ 24.9824155, 60.3290761 ], [ 24.9822037, 60.3308528 ], [ 24.9848965, 60.3329283 ], [ 24.9710896, 60.3328577 ], [ 24.954568, 60.3324594 ], [ 24.9534662, 60.3330346 ] ] ] } },
{ "type": "Feature", "properties": { "Koulu": "Viertola", "Tunnus": "Viertolan koulu" }, "geometry": { "type": "Polygon", "coordinates": [ [ [ 25.0344765, 60.2971033 ], [ 25.0337996, 60.2970805 ], [ 25.0320977, 60.2973364 ], [ 25.0237059, 60.2975149 ], [ 25.0174519, 60.2984982 ], [ 25.0131768, 60.2990685 ], [ 25.0052993, 60.3007587 ], [ 25.0027261, 60.3018982 ], [ 25.0013008, 60.3014071 ], [ 24.9935812, 60.2991083 ], [ 24.9903865, 60.3008297 ], [ 24.9896424, 60.3000398 ], [ 24.9851748, 60.2964162 ], [ 24.9846081, 60.2956126 ], [ 24.9821097, 60.2906942 ], [ 24.9833401, 60.2895183 ], [ 24.9846028, 60.2894193 ], [ 24.9849699, 60.2895961 ], [ 24.985879, 60.2897689 ], [ 24.9878729, 60.2899335 ], [ 24.9919761, 60.2881078 ], [ 24.9950216, 60.2871875 ], [ 24.9999181, 60.2859105 ], [ 24.9999933, 60.2862624 ], [ 25.0011181, 60.2866736 ], [ 25.0043555, 60.286399 ], [ 25.0056821, 60.2860781 ], [ 25.0068931, 60.2864906 ], [ 25.0078698, 60.2869869 ], [ 25.0086421, 60.2878511 ], [ 25.0109794, 60.2877004 ], [ 25.0121212, 60.2873065 ], [ 25.0155098, 60.2889305 ], [ 25.0186222, 60.2889259 ], [ 25.0212804, 60.2893725 ], [ 25.0238079, 60.2881156 ], [ 25.0265776, 60.2874902 ], [ 25.0273606, 60.2864382 ], [ 25.0293822, 60.2856198 ], [ 25.030777, 60.2854506 ], [ 25.0332465, 60.2849319 ], [ 25.0345019, 60.2853565 ], [ 25.0344062, 60.2864296 ], [ 25.0354285, 60.2873333 ], [ 25.0371714, 60.2874591 ], [ 25.0378559, 60.2879869 ], [ 25.0406227, 60.2849932 ], [ 25.0406274, 60.2850027 ], [ 25.043021, 60.2899904 ], [ 25.0426717, 60.2898606 ], [ 25.0401366, 60.289992 ], [ 25.0400993, 60.289976 ], [ 25.03937, 60.2901539 ], [ 25.0361177, 60.2905617 ], [ 25.0376287, 60.2930086 ], [ 25.0391634, 60.2962377 ], [ 25.0394005, 60.2963018 ], [ 25.0393757, 60.2963112 ], [ 25.0393866, 60.2963319 ], [ 25.0388383, 60.2964278 ], [ 25.0344755, 60.2970939 ], [ 25.0344765, 60.2971033 ] ] ] } },
{ "type": "Feature", "properties": { "Koulu": "Päiväkumpu", "Tunnus": "Päiväkummun koulu" }, "geometry": { "type": "Polygon", "coordinates": [ [ [ 25.0865172, 60.3136104 ], [ 25.086565, 60.3136027 ], [ 25.0891864, 60.3129389 ], [ 25.0919901, 60.3117042 ], [ 25.0930598, 60.310819 ], [ 25.0952903, 60.3088481 ], [ 25.0976267, 60.3070609 ], [ 25.1009622, 60.3075245 ], [ 25.1030758, 60.3102807 ], [ 25.1061591, 60.3103696 ], [ 25.1086066, 60.312993 ], [ 25.1140543, 60.3105338 ], [ 25.1264685, 60.3160209 ], [ 25.1356514, 60.3204812 ], [ 25.1356553, 60.3204835 ], [ 25.1356244, 60.3204916 ], [ 25.1164352, 60.3286945 ], [ 25.104961, 60.3337773 ], [ 25.1049337, 60.3337918 ], [ 25.1025946, 60.3334455 ], [ 25.101752, 60.3334744 ], [ 25.1007727, 60.3333945 ], [ 25.1001542, 60.3334877 ], [ 25.0993219, 60.3338247 ], [ 25.0966167, 60.3339131 ], [ 25.095479, 60.3335229 ], [ 25.093094, 60.3331714 ], [ 25.0918454, 60.3326261 ], [ 25.0914857, 60.3322926 ], [ 25.0915596, 60.3321207 ], [ 25.0927693, 60.3317686 ], [ 25.0927751, 60.3311497 ], [ 25.092316, 60.3309166 ], [ 25.0920331, 60.3303922 ], [ 25.0909894, 60.3301507 ], [ 25.0907695, 60.3299286 ], [ 25.0907581, 60.3295865 ], [ 25.0917904, 60.3286959 ], [ 25.0912797, 60.3282844 ], [ 25.0912032, 60.3279192 ], [ 25.0901173, 60.3278091 ], [ 25.0889037, 60.3276833 ], [ 25.0882956, 60.3271137 ], [ 25.0885814, 60.3265436 ], [ 25.0893785, 60.326179 ], [ 25.0896009, 60.3257672 ], [ 25.0885133, 60.3249764 ], [ 25.0874248, 60.3238531 ], [ 25.0865601, 60.3227771 ], [ 25.0863973, 60.3215898 ], [ 25.08598, 60.3207036 ], [ 25.0853398, 60.3200074 ], [ 25.0841255, 60.3194857 ], [ 25.0826876, 60.3189009 ], [ 25.0827502, 60.3184101 ], [ 25.0834507, 60.317713 ], [ 25.08415, 60.3166202 ], [ 25.0852335, 60.3159546 ], [ 25.0853589, 60.3151155 ], [ 25.0866974, 60.3143706 ], [ 25.0865172, 60.3136104 ] ] ] } },
{ "type": "Feature", "properties": { "Koulu": "Vierumäki", "Tunnus": "Vierumäen koulu" }, "geometry": { "type": "Polygon", "coordinates": [ [ [ 25.0789951, 60.3744856 ], [ 25.0787383, 60.3739193 ], [ 25.078131, 60.3732836 ], [ 25.0773195, 60.3736118 ], [ 25.0762096, 60.3729141 ], [ 25.0727638, 60.3711698 ], [ 25.0708699, 60.3709335 ], [ 25.0715173, 60.3706801 ], [ 25.0686145, 60.3709474 ], [ 25.0671964, 60.3707526 ], [ 25.0656788, 60.3697252 ], [ 25.0643702, 60.3695564 ], [ 25.0543158, 60.3737438 ], [ 25.0536683, 60.373392 ], [ 25.0528537, 60.3734605 ], [ 25.0507523, 60.3722086 ], [ 25.0501925, 60.3709479 ], [ 25.042955, 60.3679499 ], [ 25.0382761, 60.37082 ], [ 25.0345794, 60.3694601 ], [ 25.0312552, 60.3715889 ], [ 25.028342, 60.3705395 ], [ 25.0211342, 60.3678709 ], [ 25.0288119, 60.3627764 ], [ 25.0481468, 60.3495633 ], [ 25.049195, 60.3488488 ], [ 25.048013, 60.3484345 ], [ 25.0485539, 60.3480705 ], [ 25.0488729, 60.3480912 ], [ 25.0492207, 60.3474803 ], [ 25.0439376, 60.3451684 ], [ 25.0437422, 60.3450801 ], [ 25.0738198, 60.3424881 ], [ 25.0780275, 60.3507005 ], [ 25.0780781, 60.3507583 ], [ 25.080474, 60.3551493 ], [ 25.0809943, 60.3562176 ], [ 25.0809927, 60.3562478 ], [ 25.0809955, 60.3562478 ], [ 25.0826509, 60.3590142 ], [ 25.0843481, 60.3610119 ], [ 25.0856531, 60.3625628 ], [ 25.0895895, 60.3664344 ], [ 25.0891503, 60.3665062 ], [ 25.0853793, 60.3671171 ], [ 25.0885288, 60.3692574 ], [ 25.0852048, 60.3697727 ], [ 25.0851481, 60.3702122 ], [ 25.0828825, 60.3704435 ], [ 25.0845728, 60.372223 ], [ 25.0789951, 60.3744856 ] ] ] } },
{ "type": "Feature", "properties": { "Koulu": "Rekolanmäki", "Tunnus": "Rekolanmäen koulu" }, "geometry": { "type": "Polygon", "coordinates": [ [ [ 25.0690046, 60.3333075 ], [ 25.0707271, 60.336274 ], [ 25.0674183, 60.3369815 ], [ 25.0687238, 60.3377118 ], [ 25.0697326, 60.3391682 ], [ 25.0700986, 60.3402411 ], [ 25.0728121, 60.3425745 ], [ 25.0728124, 60.3425751 ], [ 25.0437422, 60.3450801 ], [ 25.0382498, 60.342599 ], [ 25.0376191, 60.3423141 ], [ 25.0372701, 60.3422206 ], [ 25.0373387, 60.3276293 ], [ 25.0435096, 60.3263991 ], [ 25.0435335, 60.3263944 ], [ 25.043413, 60.3247897 ], [ 25.0447564, 60.3238823 ], [ 25.0449655, 60.3237411 ], [ 25.0457936, 60.3225789 ], [ 25.045524, 60.3217439 ], [ 25.0462553, 60.3211627 ], [ 25.0496102, 60.3203005 ], [ 25.0498518, 60.3208973 ], [ 25.0504674, 60.3226449 ], [ 25.0507765, 60.3243545 ], [ 25.0512661, 60.3247842 ], [ 25.0513907, 60.3247608 ], [ 25.0556273, 60.3239992 ], [ 25.0558831, 60.3238975 ], [ 25.0559526, 60.3239652 ], [ 25.0582997, 60.3266056 ], [ 25.0583044, 60.3266045 ], [ 25.0583076, 60.3266162 ], [ 25.0593176, 60.3276957 ], [ 25.0616077, 60.3292508 ], [ 25.0643485, 60.3282755 ], [ 25.0653078, 60.3290349 ], [ 25.0690046, 60.3333075 ] ] ] } },
{ "type": "Feature", "properties": { "Koulu": "Jokivarsi", "Tunnus": "Jokivarren koulu" }, "geometry": { "type": "Polygon", "coordinates": [ [ [ 25.1240016, 60.360395 ], [ 25.1171109, 60.3602242 ], [ 25.1170547, 60.36035 ], [ 25.1144571, 60.3601833 ], [ 25.1106171, 60.3529309 ], [ 25.1066013, 60.3529719 ], [ 25.1051904, 60.3528933 ], [ 25.1062955, 60.3490201 ], [ 25.1062944, 60.3490201 ], [ 25.100086, 60.3484724 ], [ 25.1011289, 60.3479204 ], [ 25.1015873, 60.3474071 ], [ 25.1018141, 60.3463525 ], [ 25.1032508, 60.3460855 ], [ 25.1032869, 60.345373 ], [ 25.1017518, 60.3448328 ], [ 25.101693, 60.3443959 ], [ 25.1077104, 60.3441822 ], [ 25.1104781, 60.3441902 ], [ 25.1104947, 60.3440226 ], [ 25.1105013, 60.344023 ], [ 25.1104947, 60.3440187 ], [ 25.1112841, 60.3409593 ], [ 25.1115466, 60.3402135 ], [ 25.1145135, 60.3355531 ], [ 25.1174281, 60.3356212 ], [ 25.1172849, 60.3366625 ], [ 25.1201154, 60.3382981 ], [ 25.1201547, 60.3398285 ], [ 25.1199577, 60.3417737 ], [ 25.1237852, 60.3419187 ], [ 25.1246147, 60.3405485 ], [ 25.1246727, 60.3399658 ], [ 25.1269178, 60.3400342 ], [ 25.1271875, 60.3373906 ], [ 25.123012, 60.3356517 ], [ 25.1238511, 60.3347959 ], [ 25.1325756, 60.3350491 ], [ 25.1432095, 60.3353568 ], [ 25.1433579, 60.3362937 ], [ 25.1457532, 60.3372042 ], [ 25.1490831, 60.3381698 ], [ 25.1517252, 60.3398563 ], [ 25.1520962, 60.3403941 ], [ 25.1519714, 60.341304 ], [ 25.1516598, 60.3421028 ], [ 25.1526283, 60.3438061 ], [ 25.1527052, 60.3453387 ], [ 25.152381, 60.3461384 ], [ 25.1420682, 60.3459566 ], [ 25.1419168, 60.3472096 ], [ 25.135047, 60.347203 ], [ 25.1349201, 60.3472029 ], [ 25.1344087, 60.3485039 ], [ 25.1517048, 60.3592901 ], [ 25.1315874, 60.3590866 ], [ 25.1314928, 60.360153 ], [ 25.1240452, 60.3600037 ], [ 25.1240016, 60.360395 ] ] ] } },
{ "type": "Feature", "properties": { "Koulu": "Mikkola", "Tunnus": "Mikkolan koulu" }, "geometry": { "type": "Polygon", "coordinates": [ [ [ 25.1104781, 60.3441902 ], [ 25.1077104, 60.3441822 ], [ 25.101693, 60.3443959 ], [ 25.1017518, 60.3448328 ], [ 25.1032869, 60.345373 ], [ 25.1032508, 60.3460855 ], [ 25.1018141, 60.3463525 ], [ 25.1015873, 60.3474071 ], [ 25.1011289, 60.3479204 ], [ 25.100086, 60.3484724 ], [ 25.0947793, 60.348004 ], [ 25.0903734, 60.3478808 ], [ 25.0901624, 60.3482738 ], [ 25.0845678, 60.3478514 ], [ 25.0845098, 60.347031 ], [ 25.084206, 60.346074 ], [ 25.0792406, 60.3468222 ], [ 25.0760605, 60.3468619 ], [ 25.0744332, 60.3436855 ], [ 25.0738198, 60.3424881 ], [ 25.0728124, 60.3425751 ], [ 25.0728121, 60.3425745 ], [ 25.0700986, 60.3402411 ], [ 25.0697326, 60.3391682 ], [ 25.0687238, 60.3377118 ], [ 25.0674183, 60.3369815 ], [ 25.0724089, 60.3359144 ], [ 25.0780916, 60.3351671 ], [ 25.0884332, 60.3332608 ], [ 25.0923889, 60.3328635 ], [ 25.093094, 60.3331714 ], [ 25.095479, 60.3335229 ], [ 25.0966167, 60.3339131 ], [ 25.0993219, 60.3338247 ], [ 25.1001542, 60.3334877 ], [ 25.1007727, 60.3333945 ], [ 25.101752, 60.3334744 ], [ 25.1025946, 60.3334455 ], [ 25.1049337, 60.3337918 ], [ 25.1021619, 60.3352589 ], [ 25.10218, 60.3352593 ], [ 25.1137791, 60.3355359 ], [ 25.1145135, 60.3355531 ], [ 25.1115466, 60.3402135 ], [ 25.1112841, 60.3409593 ], [ 25.1104947, 60.3440187 ], [ 25.1105013, 60.344023 ], [ 25.1104947, 60.3440226 ], [ 25.1104781, 60.3441902 ] ] ] } },
{ "type": "Feature", "properties": { "Koulu": "Leppäkorpi", "Tunnus": "Leppäkorven koulu" }, "geometry": { "type": "Polygon", "coordinates": [ [ [ 25.0780275, 60.3507005 ], [ 25.0760605, 60.3468619 ], [ 25.0792406, 60.3468222 ], [ 25.084206, 60.346074 ], [ 25.0845098, 60.347031 ], [ 25.0845678, 60.3478514 ], [ 25.0901624, 60.3482738 ], [ 25.0903734, 60.3478808 ], [ 25.0947793, 60.348004 ], [ 25.1062944, 60.3490201 ], [ 25.1062955, 60.3490201 ], [ 25.1051904, 60.3528933 ], [ 25.1066013, 60.3529719 ], [ 25.1106171, 60.3529309 ], [ 25.1144571, 60.3601833 ], [ 25.1170547, 60.36035 ], [ 25.1169549, 60.3605733 ], [ 25.1153352, 60.3605767 ], [ 25.1162048, 60.3622059 ], [ 25.1154613, 60.3638286 ], [ 25.1157254, 60.3646103 ], [ 25.115121, 60.364542 ], [ 25.1145983, 60.3657003 ], [ 25.0903525, 60.3663096 ], [ 25.0895895, 60.3664344 ], [ 25.0856531, 60.3625628 ], [ 25.0843481, 60.3610119 ], [ 25.0826509, 60.3590142 ], [ 25.0809955, 60.3562478 ], [ 25.0809927, 60.3562478 ], [ 25.0809943, 60.3562176 ], [ 25.080474, 60.3551493 ], [ 25.0780781, 60.3507583 ], [ 25.0780275, 60.3507005 ] ] ] } },
{ "type": "Feature", "properties": { "Koulu": "Rajakylä", "Tunnus": "Rajakylän koulu" }, "geometry": { "type": "Polygon", "coordinates": [ [ [ 25.0847758, 60.2542327 ], [ 25.0847276, 60.2541427 ], [ 25.0824068, 60.2497081 ], [ 25.0913493, 60.245193 ], [ 25.1027481, 60.243156 ], [ 25.1059698, 60.242565 ], [ 25.1295779, 60.2382233 ], [ 25.1295685, 60.2379676 ], [ 25.1353918, 60.2371844 ], [ 25.1354677, 60.2372457 ], [ 25.1363022, 60.2376607 ], [ 25.1376205, 60.2396283 ], [ 25.1385776, 60.2406119 ], [ 25.1389861, 60.2409092 ], [ 25.1407343, 60.2426832 ], [ 25.141713, 60.243463 ], [ 25.1416723, 60.2438791 ], [ 25.1431657, 60.2447176 ], [ 25.1451835, 60.2452836 ], [ 25.1483497, 60.2455301 ], [ 25.1501155, 60.2454225 ], [ 25.1520619, 60.2460585 ], [ 25.1522679, 60.2458974 ], [ 25.1552863, 60.2467568 ], [ 25.1583227, 60.2484566 ], [ 25.1598515, 60.2488439 ], [ 25.1595571, 60.2492222 ], [ 25.1598236, 60.2497476 ], [ 25.1589893, 60.2509318 ], [ 25.1573676, 60.2510812 ], [ 25.1570748, 60.2536188 ], [ 25.1576653, 60.2538888 ], [ 25.155632, 60.2549577 ], [ 25.1549728, 60.2548938 ], [ 25.1543639, 60.2554367 ], [ 25.1547194, 60.2556901 ], [ 25.1541246, 60.2564783 ], [ 25.1526992, 60.2568482 ], [ 25.1504723, 60.2581636 ], [ 25.1470931, 60.2582547 ], [ 25.1445935, 60.2592383 ], [ 25.143992, 60.2603094 ], [ 25.1442953, 60.2607603 ], [ 25.1442383, 60.2609128 ], [ 25.1357383, 60.2590007 ], [ 25.1256072, 60.2575628 ], [ 25.1256064, 60.2575633 ], [ 25.1249946, 60.2571545 ], [ 25.1137559, 60.2547008 ], [ 25.1044944, 60.2536398 ], [ 25.0957754, 60.2541213 ], [ 25.0883097, 60.2543046 ], [ 25.0847758, 60.2542327 ] ] ] } },
{ "type": "Feature", "properties": { "Koulu": "Lehtikuusi", "Tunnus": "Lehtikuusen koulu" }, "geometry": { "type": "Polygon", "coordinates": [ [ [ 25.1282603, 60.2765831 ], [ 25.1273885, 60.2770015 ], [ 25.1256228, 60.2791742 ], [ 25.1182154, 60.2791227 ], [ 25.1164691, 60.2805193 ], [ 25.113751, 60.2818707 ], [ 25.1137506, 60.2818876 ], [ 25.1132091, 60.281872 ], [ 25.1119889, 60.2816736 ], [ 25.1110836, 60.281254 ], [ 25.109892, 60.2810057 ], [ 25.1096923, 60.2813549 ], [ 25.1093783, 60.2818325 ], [ 25.1082312, 60.28204 ], [ 25.1073275, 60.2820835 ], [ 25.1062899, 60.280688 ], [ 25.1053003, 60.2807743 ], [ 25.1039528, 60.2811102 ], [ 25.104443, 60.2818863 ], [ 25.1050321, 60.2821423 ], [ 25.1044028, 60.2827626 ], [ 25.1044435, 60.2836755 ], [ 25.1044427, 60.283675 ], [ 25.1042197, 60.2835412 ], [ 25.1036181, 60.2834161 ], [ 25.1031795, 60.28299 ], [ 25.1013354, 60.2805407 ], [ 25.1008464, 60.2801421 ], [ 25.0922766, 60.2813704 ], [ 25.0907589, 60.278785 ], [ 25.0887826, 60.2754068 ], [ 25.087715, 60.2743812 ], [ 25.0857656, 60.2720965 ], [ 25.0879343, 60.2712814 ], [ 25.0890858, 60.2678094 ], [ 25.0863249, 60.260631 ], [ 25.0874971, 60.2593118 ], [ 25.0847758, 60.2542327 ], [ 25.0883097, 60.2543046 ], [ 25.0957754, 60.2541213 ], [ 25.1044944, 60.2536398 ], [ 25.1137559, 60.2547008 ], [ 25.1249946, 60.2571545 ], [ 25.1256064, 60.2575633 ], [ 25.1256072, 60.2575628 ], [ 25.1357383, 60.2590007 ], [ 25.1400744, 60.2599762 ], [ 25.1337226, 60.2643483 ], [ 25.1317111, 60.2693075 ], [ 25.1317613, 60.2693722 ], [ 25.1308538, 60.2701047 ], [ 25.1291051, 60.2752358 ], [ 25.1282603, 60.2765831 ] ] ] } },
{ "type": "Feature", "properties": { "Koulu": "Pähkinärinne", "Tunnus": "Pähkinärinteen koulu" }, "geometry": { "type": "Polygon", "coordinates": [ [ [ 24.8140143, 60.2596427 ], [ 24.8139625, 60.2596997 ], [ 24.8102834, 60.2638649 ], [ 24.8069345, 60.2669861 ], [ 24.8069171, 60.2669877 ], [ 24.8067279, 60.2675414 ], [ 24.8062986, 60.2679773 ], [ 24.8062929, 60.2680319 ], [ 24.8031118, 60.2676225 ], [ 24.8029548, 60.2678881 ], [ 24.801654, 60.2675265 ], [ 24.8009874, 60.2670823 ], [ 24.7989372, 60.2663738 ], [ 24.7990648, 60.2661759 ], [ 24.800262, 60.2658096 ], [ 24.7991898, 60.2652737 ], [ 24.7986146, 60.2655341 ], [ 24.7980883, 60.2656045 ], [ 24.7956805, 60.2646272 ], [ 24.7952494, 60.2647809 ], [ 24.7940053, 60.2649927 ], [ 24.7936821, 60.2652423 ], [ 24.7936548, 60.2652356 ], [ 24.7920678, 60.2652521 ], [ 24.7903328, 60.2637819 ], [ 24.7902783, 60.2637942 ], [ 24.7902786, 60.2637937 ], [ 24.789102, 60.2637268 ], [ 24.780806, 60.2615857 ], [ 24.7778816, 60.2643165 ], [ 24.7778609, 60.2644735 ], [ 24.7745503, 60.264398 ], [ 24.7711561, 60.262454 ], [ 24.7702399, 60.2624173 ], [ 24.7691629, 60.2621475 ], [ 24.7691216, 60.262143 ], [ 24.7691908, 60.2620646 ], [ 24.7694816, 60.2620919 ], [ 24.7697859, 60.2619824 ], [ 24.7699688, 60.2617623 ], [ 24.7698705, 60.2612687 ], [ 24.771058, 60.260167 ], [ 24.7740115, 60.2574266 ], [ 24.7847256, 60.2415151 ], [ 24.7924474, 60.243634 ], [ 24.7967943, 60.2447824 ], [ 24.7976229, 60.2450013 ], [ 24.8081133, 60.247821 ], [ 24.8077316, 60.2482165 ], [ 24.806264, 60.2486418 ], [ 24.8088045, 60.2499278 ], [ 24.8077187, 60.2522317 ], [ 24.807532, 60.2525634 ], [ 24.8075303, 60.2528484 ], [ 24.8072042, 60.2530474 ], [ 24.8065156, 60.2531414 ], [ 24.8073134, 60.2539879 ], [ 24.8091289, 60.254019 ], [ 24.810139, 60.2545239 ], [ 24.8106837, 60.2549561 ], [ 24.8105349, 60.2550296 ], [ 24.8096743, 60.2551067 ], [ 24.8099285, 60.2557768 ], [ 24.8096671, 60.2566468 ], [ 24.8095426, 60.2567206 ], [ 24.8095067, 60.2571446 ], [ 24.8104068, 60.2577362 ], [ 24.8134421, 60.2594699 ], [ 24.8140143, 60.2596427 ] ] ] } },
{ "type": "Feature", "properties": { "Koulu": "Rajatorppa", "Tunnus": "Rajatorpan koulu" }, "geometry": { "type": "Polygon", "coordinates": [ [ [ 24.8431143, 60.2606169 ], [ 24.8420404, 60.2606156 ], [ 24.8365327, 60.264915 ], [ 24.8365324, 60.2649194 ], [ 24.8354387, 60.2685435 ], [ 24.8354349, 60.2685473 ], [ 24.8354312, 60.2685443 ], [ 24.8321501, 60.2688745 ], [ 24.8267714, 60.2686153 ], [ 24.8202295, 60.2673365 ], [ 24.817086, 60.2665032 ], [ 24.8102834, 60.2638649 ], [ 24.8139625, 60.2596997 ], [ 24.8140143, 60.2596427 ], [ 24.8134421, 60.2594699 ], [ 24.8104068, 60.2577362 ], [ 24.8095067, 60.2571446 ], [ 24.8095426, 60.2567206 ], [ 24.8096671, 60.2566468 ], [ 24.8099285, 60.2557768 ], [ 24.8096743, 60.2551067 ], [ 24.8105349, 60.2550296 ], [ 24.8106837, 60.2549561 ], [ 24.810139, 60.2545239 ], [ 24.8091289, 60.254019 ], [ 24.8073134, 60.2539879 ], [ 24.8065156, 60.2531414 ], [ 24.8072042, 60.2530474 ], [ 24.8075303, 60.2528484 ], [ 24.807532, 60.2525634 ], [ 24.8077187, 60.2522317 ], [ 24.8088045, 60.2499278 ], [ 24.806264, 60.2486418 ], [ 24.8077316, 60.2482165 ], [ 24.8081133, 60.247821 ], [ 24.828607, 60.2533255 ], [ 24.8336571, 60.2546782 ], [ 24.834706, 60.2585095 ], [ 24.8354608, 60.2587767 ], [ 24.835461, 60.2587779 ], [ 24.8354651, 60.2587726 ], [ 24.8367577, 60.2590122 ], [ 24.8368443, 60.2590283 ], [ 24.8369402, 60.2590363 ], [ 24.8377133, 60.2591007 ], [ 24.8386418, 60.2590957 ], [ 24.8386451, 60.2590982 ], [ 24.8386511, 60.2590965 ], [ 24.8499924, 60.2558509 ], [ 24.8504173, 60.2560802 ], [ 24.8512532, 60.2561643 ], [ 24.8513459, 60.2567937 ], [ 24.8519901, 60.2570082 ], [ 24.8518668, 60.2578392 ], [ 24.849979, 60.2578727 ], [ 24.8498306, 60.2590604 ], [ 24.8493105, 60.2590467 ], [ 24.84856, 60.2590494 ], [ 24.8483787, 60.2589994 ], [ 24.8449318, 60.2590663 ], [ 24.8432395, 60.2594461 ], [ 24.8431143, 60.2606169 ] ] ] } },
{ "type": "Feature", "properties": { "Koulu": "Hämeenkylä", "Tunnus": "Hämeenkylän koulu" }, "geometry": { "type": "Polygon", "coordinates": [ [ [ 24.8158782, 60.2882148 ], [ 24.8123455, 60.2894914 ], [ 24.8097068, 60.2898745 ], [ 24.8036297, 60.2881686 ], [ 24.7954006, 60.2814923 ], [ 24.802397, 60.2780566 ], [ 24.8034677, 60.2765216 ], [ 24.8041924, 60.2740476 ], [ 24.8019453, 60.2735466 ], [ 24.7961815, 60.2730802 ], [ 24.7905745, 60.2735566 ], [ 24.7911167, 60.2720865 ], [ 24.7897818, 60.2704808 ], [ 24.7942221, 60.2689809 ], [ 24.7945302, 60.2686394 ], [ 24.7900668, 60.2669036 ], [ 24.7908345, 60.2664489 ], [ 24.7929058, 60.2654643 ], [ 24.793467, 60.2652376 ], [ 24.7936548, 60.2652356 ], [ 24.7936821, 60.2652423 ], [ 24.7940053, 60.2649927 ], [ 24.7952494, 60.2647809 ], [ 24.7956805, 60.2646272 ], [ 24.7980883, 60.2656045 ], [ 24.7986146, 60.2655341 ], [ 24.7991898, 60.2652737 ], [ 24.800262, 60.2658096 ], [ 24.7990648, 60.2661759 ], [ 24.7989372, 60.2663738 ], [ 24.8009874, 60.2670823 ], [ 24.801654, 60.2675265 ], [ 24.8029548, 60.2678881 ], [ 24.8031118, 60.2676225 ], [ 24.8062929, 60.2680319 ], [ 24.8062986, 60.2679773 ], [ 24.8067279, 60.2675414 ], [ 24.8069171, 60.2669877 ], [ 24.8069345, 60.2669861 ], [ 24.8102834, 60.2638649 ], [ 24.817086, 60.2665032 ], [ 24.8202295, 60.2673365 ], [ 24.8267714, 60.2686153 ], [ 24.8321501, 60.2688745 ], [ 24.8354312, 60.2685443 ], [ 24.8354349, 60.2685473 ], [ 24.8351964, 60.2709559 ], [ 24.8354807, 60.2757804 ], [ 24.8357861, 60.2802675 ], [ 24.8355348, 60.2816704 ], [ 24.834708, 60.2830057 ], [ 24.8336759, 60.283796 ], [ 24.8320127, 60.2842338 ], [ 24.8297198, 60.2843669 ], [ 24.828432, 60.2845174 ], [ 24.8270558, 60.2849536 ], [ 24.8245709, 60.2869641 ], [ 24.8235052, 60.2888175 ], [ 24.8235371, 60.2889207 ], [ 24.8191474, 60.2881351 ], [ 24.8170516, 60.2880564 ], [ 24.8158782, 60.2882148 ] ] ] } },
{ "type": "Feature", "properties": { "Koulu": "Uomarinne", "Tunnus": "Uomarinteen koulu" }, "geometry": { "type": "Polygon", "coordinates": [ [ [ 24.8614366, 60.2724725 ], [ 24.8616593, 60.2729612 ], [ 24.8582257, 60.2734292 ], [ 24.858103, 60.2734459 ], [ 24.8582535, 60.2736993 ], [ 24.8547932, 60.2741404 ], [ 24.853732, 60.2734933 ], [ 24.8537229, 60.2726217 ], [ 24.8526234, 60.2725685 ], [ 24.8522563, 60.2725507 ], [ 24.8460204, 60.272468 ], [ 24.8456958, 60.2724111 ], [ 24.8441529, 60.2731628 ], [ 24.84071, 60.2728618 ], [ 24.8394655, 60.2722082 ], [ 24.8393876, 60.2718602 ], [ 24.8351982, 60.2709379 ], [ 24.8354349, 60.2685473 ], [ 24.8354387, 60.2685435 ], [ 24.8365324, 60.2649194 ], [ 24.8365327, 60.264915 ], [ 24.8420404, 60.2606156 ], [ 24.8431143, 60.2606169 ], [ 24.8432395, 60.2594461 ], [ 24.8449318, 60.2590663 ], [ 24.8483787, 60.2589994 ], [ 24.84856, 60.2590494 ], [ 24.8493105, 60.2590467 ], [ 24.855008, 60.2591973 ], [ 24.8546568, 60.2636577 ], [ 24.854702, 60.263658 ], [ 24.8546524, 60.2637497 ], [ 24.8586187, 60.2637846 ], [ 24.8584441, 60.2656332 ], [ 24.858384, 60.2666954 ], [ 24.8582498, 60.2668309 ], [ 24.8579743, 60.2689475 ], [ 24.8589469, 60.2691463 ], [ 24.8605377, 60.271092 ], [ 24.8614366, 60.2724725 ] ] ] } },
{ "type": "Feature", "properties": { "Koulu": "Martinlaakso", "Tunnus": "Martinlaakson koulu" }, "geometry": { "type": "Polygon", "coordinates": [ [ [ 24.8456958, 60.2724111 ], [ 24.8460204, 60.272468 ], [ 24.8522563, 60.2725507 ], [ 24.8526234, 60.2725685 ], [ 24.8519244, 60.2743615 ], [ 24.8529629, 60.2785845 ], [ 24.8529181, 60.2795136 ], [ 24.8514807, 60.2825219 ], [ 24.8491891, 60.2854281 ], [ 24.8431333, 60.2921199 ], [ 24.8419548, 60.2920132 ], [ 24.8401681, 60.2913852 ], [ 24.835175, 60.2881006 ], [ 24.8326434, 60.2866383 ], [ 24.8285283, 60.2845063 ], [ 24.8285282, 60.2845062 ], [ 24.8297198, 60.2843669 ], [ 24.8320127, 60.2842338 ], [ 24.8336759, 60.283796 ], [ 24.834708, 60.2830057 ], [ 24.8355348, 60.2816704 ], [ 24.8357861, 60.2802675 ], [ 24.8354807, 60.2757804 ], [ 24.8351964, 60.2709559 ], [ 24.8351982, 60.2709379 ], [ 24.8393876, 60.2718602 ], [ 24.8394655, 60.2722082 ], [ 24.84071, 60.2728618 ], [ 24.8441529, 60.2731628 ], [ 24.8456958, 60.2724111 ] ] ] } },
{ "type": "Feature", "properties": { "Koulu": "Seutula", "Tunnus": "Seutulan koulu" }, "geometry": { "type": "Polygon", "coordinates": [ [ [ 24.9389712, 60.3288839 ], [ 24.9431877, 60.3308464 ], [ 24.9534662, 60.3330346 ], [ 24.9430753, 60.3384585 ], [ 24.9417784, 60.3391352 ], [ 24.9321204, 60.3453806 ], [ 24.9284094, 60.3480621 ], [ 24.9064774, 60.3648175 ], [ 24.8944127, 60.3716241 ], [ 24.8771065, 60.3824219 ], [ 24.8761552, 60.3828629 ], [ 24.8752184, 60.3834207 ], [ 24.876655, 60.384657 ], [ 24.8772489, 60.385928 ], [ 24.8769871, 60.389498 ], [ 24.8757399, 60.3906602 ], [ 24.8726361, 60.3920016 ], [ 24.8716236, 60.3928539 ], [ 24.8676515, 60.3945639 ], [ 24.8679914, 60.3962756 ], [ 24.8675287, 60.3975532 ], [ 24.8662399, 60.3980875 ], [ 24.8662678, 60.3986804 ], [ 24.8686513, 60.3999769 ], [ 24.8691066, 60.4006324 ], [ 24.8688241, 60.4012375 ], [ 24.8305087, 60.3944908 ], [ 24.8142714, 60.3839166 ], [ 24.8142761, 60.3838993 ], [ 24.8147228, 60.3814461 ], [ 24.8140779, 60.3757344 ], [ 24.8110811, 60.3700451 ], [ 24.8103215, 60.3692643 ], [ 24.8249334, 60.3616866 ], [ 24.824286, 60.361167 ], [ 24.8312804, 60.3554949 ], [ 24.8310041, 60.3552621 ], [ 24.8311248, 60.3546916 ], [ 24.8300488, 60.3524115 ], [ 24.8269085, 60.3505958 ], [ 24.8269963, 60.3497909 ], [ 24.8261746, 60.3493885 ], [ 24.8236131, 60.3492059 ], [ 24.8219325, 60.3493718 ], [ 24.821873, 60.3487287 ], [ 24.8226757, 60.3479516 ], [ 24.8228668, 60.3469424 ], [ 24.823314, 60.346598 ], [ 24.8251044, 60.3464353 ], [ 24.8263962, 60.3461698 ], [ 24.8276163, 60.3447896 ], [ 24.8277759, 60.3442524 ], [ 24.8269542, 60.342563 ], [ 24.8273284, 60.3419603 ], [ 24.8292104, 60.3410906 ], [ 24.8304565, 60.3407397 ], [ 24.8330956, 60.3407232 ], [ 24.834331, 60.3411069 ], [ 24.8370214, 60.3419426 ], [ 24.8418456, 60.3427486 ], [ 24.8440781, 60.3437426 ], [ 24.8456841, 60.3439255 ], [ 24.8465023, 60.34377 ], [ 24.8482613, 60.3431797 ], [ 24.8496999, 60.34334 ], [ 24.8507894, 60.3438715 ], [ 24.8518632, 60.3435642 ], [ 24.8553636, 60.3433702 ], [ 24.8565363, 60.3435343 ], [ 24.8575197, 60.3447291 ], [ 24.8591331, 60.3451906 ], [ 24.8610913, 60.3451528 ], [ 24.8652964, 60.3442284 ], [ 24.8679335, 60.3424953 ], [ 24.8698346, 60.3423757 ], [ 24.8722546, 60.3415321 ], [ 24.8745738, 60.3415939 ], [ 24.8770151, 60.3413503 ], [ 24.8796462, 60.3411665 ], [ 24.8849014, 60.3410538 ], [ 24.8871428, 60.3407172 ], [ 24.8885131, 60.3401933 ], [ 24.889355, 60.3393298 ], [ 24.8892967, 60.3387725 ], [ 24.8885788, 60.3378335 ], [ 24.8889916, 60.3371081 ], [ 24.8928286, 60.3350168 ], [ 24.8932928, 60.3329976 ], [ 24.8933583, 60.3306378 ], [ 24.9088932, 60.3304307 ], [ 24.9095495, 60.3306944 ], [ 24.9107278, 60.3302842 ], [ 24.9134858, 60.3302921 ], [ 24.9134474, 60.3308554 ], [ 24.9187495, 60.3309529 ], [ 24.9192871, 60.330842 ], [ 24.919642, 60.3300083 ], [ 24.9385717, 60.328882 ], [ 24.9389712, 60.3288839 ] ] ] } },
{ "type": "Feature", "properties": { "Koulu": "Kannisto", "Tunnus": "Kanniston koulu" }, "geometry": { "type": "Polygon", "coordinates": [ [ [ 24.8485276, 60.3227978 ], [ 24.8485353, 60.322802 ], [ 24.8502302, 60.3228324 ], [ 24.8502633, 60.3218921 ], [ 24.8509552, 60.3213514 ], [ 24.8531682, 60.3211686 ], [ 24.8551532, 60.3205582 ], [ 24.8608506, 60.3183843 ], [ 24.86586, 60.3195743 ], [ 24.8855738, 60.3139385 ], [ 24.8888643, 60.3117181 ], [ 24.8903123, 60.3093224 ], [ 24.8925539, 60.3082885 ], [ 24.8949684, 60.3076556 ], [ 24.9001281, 60.3066556 ], [ 24.9058407, 60.3041502 ], [ 24.9083647, 60.3035969 ], [ 24.9167019, 60.3036859 ], [ 24.9213329, 60.3077413 ], [ 24.9229569, 60.3087917 ], [ 24.9222266, 60.3092277 ], [ 24.9213563, 60.3098528 ], [ 24.9189975, 60.3124244 ], [ 24.9153335, 60.317043 ], [ 24.9151772, 60.3174589 ], [ 24.9159511, 60.3181324 ], [ 24.9298037, 60.3246159 ], [ 24.9382386, 60.3285429 ], [ 24.9384352, 60.3286345 ], [ 24.9389712, 60.3288839 ], [ 24.9385717, 60.328882 ], [ 24.919642, 60.3300083 ], [ 24.9192871, 60.330842 ], [ 24.9187495, 60.3309529 ], [ 24.9134474, 60.3308554 ], [ 24.9134858, 60.3302921 ], [ 24.9107278, 60.3302842 ], [ 24.9095495, 60.3306944 ], [ 24.9088932, 60.3304307 ], [ 24.8933583, 60.3306378 ], [ 24.8932928, 60.3329976 ], [ 24.8928286, 60.3350168 ], [ 24.8889916, 60.3371081 ], [ 24.8885788, 60.3378335 ], [ 24.8892967, 60.3387725 ], [ 24.889355, 60.3393298 ], [ 24.8885131, 60.3401933 ], [ 24.8871428, 60.3407172 ], [ 24.8849014, 60.3410538 ], [ 24.8796462, 60.3411665 ], [ 24.8770151, 60.3413503 ], [ 24.8745738, 60.3415939 ], [ 24.8722546, 60.3415321 ], [ 24.8698346, 60.3423757 ], [ 24.8679335, 60.3424953 ], [ 24.8652964, 60.3442284 ], [ 24.8610913, 60.3451528 ], [ 24.8591331, 60.3451906 ], [ 24.8575197, 60.3447291 ], [ 24.8565363, 60.3435343 ], [ 24.8553636, 60.3433702 ], [ 24.8518632, 60.3435642 ], [ 24.8507894, 60.3438715 ], [ 24.8496999, 60.34334 ], [ 24.8482613, 60.3431797 ], [ 24.8465023, 60.34377 ], [ 24.8456841, 60.3439255 ], [ 24.8440781, 60.3437426 ], [ 24.8418456, 60.3427486 ], [ 24.8370214, 60.3419426 ], [ 24.834331, 60.3411069 ], [ 24.8364392, 60.3364456 ], [ 24.8340186, 60.3347148 ], [ 24.8342889, 60.3342926 ], [ 24.8331041, 60.3342968 ], [ 24.8301045, 60.3326497 ], [ 24.8311868, 60.3308368 ], [ 24.8344413, 60.3307982 ], [ 24.8344486, 60.3305197 ], [ 24.8356731, 60.3289288 ], [ 24.8358326, 60.3282894 ], [ 24.8358578, 60.3282942 ], [ 24.83579, 60.3282019 ], [ 24.8360492, 60.3281025 ], [ 24.8360528, 60.3273758 ], [ 24.8366022, 60.3266855 ], [ 24.8372659, 60.3261235 ], [ 24.8382022, 60.3256117 ], [ 24.8388223, 60.3251494 ], [ 24.8389133, 60.3241663 ], [ 24.8391075, 60.3241025 ], [ 24.8391019, 60.3241013 ], [ 24.840786, 60.3226352 ], [ 24.8417551, 60.3227139 ], [ 24.8427407, 60.3226386 ], [ 24.8441274, 60.3228272 ], [ 24.8451585, 60.3231489 ], [ 24.8452072, 60.3232465 ], [ 24.847338, 60.3234668 ], [ 24.8477773, 60.3234996 ], [ 24.8485276, 60.3227978 ] ] ] } },
{ "type": "Feature", "properties": { "Koulu": "Jokiniemi", "Tunnus": "Jokiniemen koulu" }, "geometry": { "type": "Polygon", "coordinates": [ [ [ 25.0400993, 60.289976 ], [ 25.0401366, 60.289992 ], [ 25.0426717, 60.2898606 ], [ 25.043021, 60.2899904 ], [ 25.0430124, 60.2899726 ], [ 25.0431485, 60.2899879 ], [ 25.0443824, 60.2900677 ], [ 25.0461994, 60.2904564 ], [ 25.0488437, 60.2920288 ], [ 25.0488488, 60.2920259 ], [ 25.0488654, 60.2920874 ], [ 25.0494836, 60.2921632 ], [ 25.0508039, 60.2928321 ], [ 25.0512944, 60.2924944 ], [ 25.0514463, 60.2917535 ], [ 25.0522865, 60.2906133 ], [ 25.0545801, 60.2891305 ], [ 25.056302, 60.2890348 ], [ 25.0587919, 60.2904016 ], [ 25.0615112, 60.2915782 ], [ 25.0633893, 60.2930592 ], [ 25.0644257, 60.2945975 ], [ 25.0657007, 60.2954245 ], [ 25.0672169, 60.2949857 ], [ 25.0715309, 60.2927933 ], [ 25.0759065, 60.2963406 ], [ 25.0759571, 60.2974483 ], [ 25.0775434, 60.298448 ], [ 25.0785097, 60.3011037 ], [ 25.0738196, 60.3021777 ], [ 25.0694265, 60.3027474 ], [ 25.0689109, 60.3029188 ], [ 25.0676134, 60.3028016 ], [ 25.0660201, 60.3037066 ], [ 25.0611644, 60.3061789 ], [ 25.0588027, 60.3068605 ], [ 25.0547946, 60.3100345 ], [ 25.0527489, 60.3108473 ], [ 25.0489132, 60.3026534 ], [ 25.0489128, 60.3026535 ], [ 25.0489198, 60.3025151 ], [ 25.0472904, 60.2987409 ], [ 25.0412236, 60.2994894 ], [ 25.0410463, 60.2994937 ], [ 25.0393757, 60.2963112 ], [ 25.0394005, 60.2963018 ], [ 25.0391634, 60.2962377 ], [ 25.0376287, 60.2930086 ], [ 25.0361177, 60.2905617 ], [ 25.03937, 60.2901539 ], [ 25.0400993, 60.289976 ] ] ] } },
{ "type": "Feature", "properties": { "Koulu": "Kuusikko", "Tunnus": "Kuusikon koulu" }, "geometry": { "type": "Polygon", "coordinates": [ [ [ 25.0508039, 60.2928321 ], [ 25.0494836, 60.2921632 ], [ 25.0488654, 60.2920874 ], [ 25.0488488, 60.2920259 ], [ 25.0488437, 60.2920288 ], [ 25.0461994, 60.2904564 ], [ 25.0443824, 60.2900677 ], [ 25.0431485, 60.2899879 ], [ 25.0430124, 60.2899726 ], [ 25.0406274, 60.2850027 ], [ 25.0406227, 60.2849932 ], [ 25.0408503, 60.2847468 ], [ 25.0406189, 60.2841472 ], [ 25.0407033, 60.2840669 ], [ 25.0415294, 60.2832975 ], [ 25.0422288, 60.2831669 ], [ 25.0433778, 60.2819159 ], [ 25.0422357, 60.2815212 ], [ 25.0437186, 60.2798722 ], [ 25.0441534, 60.2800248 ], [ 25.04507, 60.2792889 ], [ 25.0451306, 60.2785541 ], [ 25.0457072, 60.2784277 ], [ 25.0460147, 60.2788818 ], [ 25.0470483, 60.2777091 ], [ 25.0506232, 60.2783307 ], [ 25.0533653, 60.2760255 ], [ 25.0546941, 60.2759394 ], [ 25.0565966, 60.2758162 ], [ 25.0615376, 60.2763856 ], [ 25.0623377, 60.2754483 ], [ 25.0684622, 60.275043 ], [ 25.0763583, 60.2755297 ], [ 25.0766181, 60.2755593 ], [ 25.0847005, 60.2724969 ], [ 25.0857656, 60.2720965 ], [ 25.087715, 60.2743812 ], [ 25.0887826, 60.2754068 ], [ 25.0907589, 60.278785 ], [ 25.0923082, 60.2814241 ], [ 25.0933267, 60.2851878 ], [ 25.0808834, 60.2878441 ], [ 25.0810003, 60.2882408 ], [ 25.0835625, 60.2937118 ], [ 25.0852789, 60.2964783 ], [ 25.0863867, 60.2992798 ], [ 25.0918536, 60.3035981 ], [ 25.0942051, 60.3058524 ], [ 25.0938355, 60.3081562 ], [ 25.0952939, 60.3088453 ], [ 25.0952903, 60.3088481 ], [ 25.0930598, 60.310819 ], [ 25.0919901, 60.3117042 ], [ 25.0891864, 60.3129389 ], [ 25.086565, 60.3136027 ], [ 25.0854595, 60.3132153 ], [ 25.0853366, 60.3119731 ], [ 25.0833556, 60.3107461 ], [ 25.0770337, 60.3104057 ], [ 25.0747964, 60.3096165 ], [ 25.0728439, 60.3103235 ], [ 25.0715087, 60.3100503 ], [ 25.0689356, 60.308447 ], [ 25.0689579, 60.3068024 ], [ 25.0697267, 60.3049187 ], [ 25.0689526, 60.3042784 ], [ 25.0668456, 60.3041137 ], [ 25.0660201, 60.3037066 ], [ 25.0676134, 60.3028016 ], [ 25.0689109, 60.3029188 ], [ 25.0694265, 60.3027474 ], [ 25.0738196, 60.3021777 ], [ 25.0785097, 60.3011037 ], [ 25.0775434, 60.298448 ], [ 25.0759571, 60.2974483 ], [ 25.0759065, 60.2963406 ], [ 25.0715309, 60.2927933 ], [ 25.0672169, 60.2949857 ], [ 25.0657007, 60.2954245 ], [ 25.0644257, 60.2945975 ], [ 25.0633893, 60.2930592 ], [ 25.0615112, 60.2915782 ], [ 25.0587919, 60.2904016 ], [ 25.056302, 60.2890348 ], [ 25.0545801, 60.2891305 ], [ 25.0522865, 60.2906133 ], [ 25.0514463, 60.2917535 ], [ 25.0512944, 60.2924944 ], [ 25.0508039, 60.2928321 ] ] ] } },
{ "type": "Feature", "properties": { "Koulu": "Hiekkaharju", "Tunnus": "Hiekkaharjun koulu" }, "geometry": { "type": "Polygon", "coordinates": [ [ [ 25.0566661, 60.3192107 ], [ 25.0523464, 60.3195972 ], [ 25.0515235, 60.3198088 ], [ 25.0462553, 60.3211627 ], [ 25.04584, 60.3214928 ], [ 25.0457874, 60.3215346 ], [ 25.0419376, 60.3220324 ], [ 25.0392066, 60.3206369 ], [ 25.0389456, 60.3185994 ], [ 25.0387166, 60.3178857 ], [ 25.0366144, 60.318093 ], [ 25.0332257, 60.3210441 ], [ 25.0234394, 60.3199703 ], [ 25.0207055, 60.3146693 ], [ 25.0259292, 60.3115591 ], [ 25.0257525, 60.3109627 ], [ 25.027723, 60.3096979 ], [ 25.0284123, 60.3099284 ], [ 25.0289569, 60.3094749 ], [ 25.0289726, 60.3089899 ], [ 25.030431, 60.3088702 ], [ 25.0311356, 60.3081146 ], [ 25.031536, 60.3078998 ], [ 25.033541, 60.3072995 ], [ 25.0336789, 60.30519 ], [ 25.0326757, 60.3016519 ], [ 25.0334656, 60.2996482 ], [ 25.0334635, 60.2996467 ], [ 25.0334722, 60.2996474 ], [ 25.0336551, 60.2995638 ], [ 25.0345142, 60.2974549 ], [ 25.0344755, 60.2970939 ], [ 25.0388383, 60.2964278 ], [ 25.0393866, 60.2963319 ], [ 25.0410463, 60.2994937 ], [ 25.0412236, 60.2994894 ], [ 25.0472904, 60.2987409 ], [ 25.0489198, 60.3025151 ], [ 25.0489128, 60.3026535 ], [ 25.0489132, 60.3026534 ], [ 25.0559727, 60.3177306 ], [ 25.0566661, 60.3192107 ] ] ] } },
{ "type": "Feature", "properties": { "Koulu": "Ilola", "Tunnus": "Ilolan koulu" }, "geometry": { "type": "Polygon", "coordinates": [ [ [ 25.0172973, 60.322697 ], [ 25.0172987, 60.3227021 ], [ 25.0202761, 60.3218402 ], [ 25.022944, 60.3220182 ], [ 25.0234394, 60.3199703 ], [ 25.0332257, 60.3210441 ], [ 25.0366144, 60.318093 ], [ 25.0387166, 60.3178857 ], [ 25.0389456, 60.3185994 ], [ 25.0392066, 60.3206369 ], [ 25.0419376, 60.3220324 ], [ 25.0457874, 60.3215346 ], [ 25.045524, 60.3217439 ], [ 25.0457936, 60.3225789 ], [ 25.0449655, 60.3237411 ], [ 25.043413, 60.3247897 ], [ 25.0435335, 60.3263944 ], [ 25.0373387, 60.3276293 ], [ 25.0372701, 60.3422206 ], [ 25.0040803, 60.3333159 ], [ 25.003865, 60.3332581 ], [ 25.0035948, 60.3332429 ], [ 25.0000579, 60.3330042 ], [ 24.9994456, 60.3330011 ], [ 24.9942151, 60.3329752 ], [ 24.9848965, 60.3329283 ], [ 24.9822037, 60.3308528 ], [ 24.9824155, 60.3290761 ], [ 24.9806201, 60.3277745 ], [ 24.9778096, 60.3268746 ], [ 24.9759611, 60.3260007 ], [ 24.9756654, 60.3232344 ], [ 24.9834061, 60.3158173 ], [ 24.984589, 60.313026 ], [ 24.9893458, 60.308772 ], [ 24.9898882, 60.308768 ], [ 24.9939177, 60.3044295 ], [ 24.9969301, 60.3077217 ], [ 24.9979466, 60.3128681 ], [ 25.0006508, 60.3197444 ], [ 25.0006748, 60.3197198 ], [ 25.0006201, 60.3200001 ], [ 25.0009457, 60.320589 ], [ 25.0009842, 60.3205927 ], [ 25.0008474, 60.3209728 ], [ 25.0011897, 60.3226574 ], [ 25.006509, 60.3233363 ], [ 25.0132237, 60.3230224 ], [ 25.0163311, 60.323231 ], [ 25.0172973, 60.322697 ] ] ] } },
{ "type": "Feature", "properties": { "Koulu": "Simonkallio", "Tunnus": "Simonkallion koulu" }, "geometry": { "type": "Polygon", "coordinates": [ [ [ 25.006509, 60.3233363 ], [ 25.0011897, 60.3226574 ], [ 25.0008474, 60.3209728 ], [ 25.0009842, 60.3205927 ], [ 25.0009457, 60.320589 ], [ 25.0006201, 60.3200001 ], [ 25.0006748, 60.3197198 ], [ 25.0006508, 60.3197444 ], [ 24.9979466, 60.3128681 ], [ 24.9969301, 60.3077217 ], [ 24.996785, 60.3075632 ], [ 24.9939177, 60.3044295 ], [ 24.9916794, 60.3022023 ], [ 24.9903865, 60.3008297 ], [ 24.9935812, 60.2991083 ], [ 25.0013008, 60.3014071 ], [ 25.0027261, 60.3018982 ], [ 25.0052993, 60.3007587 ], [ 25.0131768, 60.2990685 ], [ 25.0174519, 60.2984982 ], [ 25.0237059, 60.2975149 ], [ 25.0320977, 60.2973364 ], [ 25.0337996, 60.2970805 ], [ 25.0344765, 60.2971033 ], [ 25.0345142, 60.2974549 ], [ 25.0336551, 60.2995638 ], [ 25.0334722, 60.2996474 ], [ 25.0334635, 60.2996467 ], [ 25.0334656, 60.2996482 ], [ 25.0326757, 60.3016519 ], [ 25.0336789, 60.30519 ], [ 25.033541, 60.3072995 ], [ 25.031536, 60.3078998 ], [ 25.0311356, 60.3081146 ], [ 25.030431, 60.3088702 ], [ 25.0289726, 60.3089899 ], [ 25.0289569, 60.3094749 ], [ 25.0284123, 60.3099284 ], [ 25.027723, 60.3096979 ], [ 25.0257525, 60.3109627 ], [ 25.0259292, 60.3115591 ], [ 25.0207055, 60.3146693 ], [ 25.0234394, 60.3199703 ], [ 25.022944, 60.3220182 ], [ 25.0202761, 60.3218402 ], [ 25.0172987, 60.3227021 ], [ 25.0172973, 60.322697 ], [ 25.0163311, 60.323231 ], [ 25.0132237, 60.3230224 ], [ 25.006509, 60.3233363 ] ] ] } },
{ "type": "Feature", "properties": { "Koulu": "Kytöpuisto", "Tunnus": "Kytöpuiston koulu" }, "geometry": { "type": "Polygon", "coordinates": [ [ [ 25.0496102, 60.3203005 ], [ 25.0513468, 60.3198542 ], [ 25.0513974, 60.3198412 ], [ 25.0523464, 60.3195972 ], [ 25.0566661, 60.3192107 ], [ 25.0527489, 60.3108473 ], [ 25.0547946, 60.3100345 ], [ 25.0588027, 60.3068605 ], [ 25.0611644, 60.3061789 ], [ 25.0660201, 60.3037066 ], [ 25.0668456, 60.3041137 ], [ 25.0689526, 60.3042784 ], [ 25.0697267, 60.3049187 ], [ 25.0689579, 60.3068024 ], [ 25.0689356, 60.308447 ], [ 25.0715087, 60.3100503 ], [ 25.0728439, 60.3103235 ], [ 25.0747964, 60.3096165 ], [ 25.0770337, 60.3104057 ], [ 25.0833556, 60.3107461 ], [ 25.0853366, 60.3119731 ], [ 25.0854595, 60.3132153 ], [ 25.086565, 60.3136027 ], [ 25.0865172, 60.3136104 ], [ 25.0866974, 60.3143706 ], [ 25.0853589, 60.3151155 ], [ 25.0852335, 60.3159546 ], [ 25.08415, 60.3166202 ], [ 25.0834507, 60.317713 ], [ 25.0827502, 60.3184101 ], [ 25.0826876, 60.3189009 ], [ 25.0827282, 60.3189174 ], [ 25.0841255, 60.3194857 ], [ 25.0853398, 60.3200074 ], [ 25.08598, 60.3207036 ], [ 25.0862672, 60.3213134 ], [ 25.0862973, 60.3213775 ], [ 25.0838768, 60.3217583 ], [ 25.0826563, 60.3219491 ], [ 25.0815053, 60.3212017 ], [ 25.0805485, 60.3215585 ], [ 25.0788976, 60.3219632 ], [ 25.0782257, 60.3213462 ], [ 25.0777999, 60.3212108 ], [ 25.0769394, 60.3214735 ], [ 25.0746424, 60.3220542 ], [ 25.0735097, 60.3208485 ], [ 25.0705616, 60.3215055 ], [ 25.0704862, 60.3220565 ], [ 25.0703807, 60.3230556 ], [ 25.0699373, 60.323423 ], [ 25.06926, 60.3236552 ], [ 25.068872, 60.3233836 ], [ 25.068353, 60.3222998 ], [ 25.0655721, 60.322794 ], [ 25.065414, 60.3232178 ], [ 25.0660914, 60.3240847 ], [ 25.0666973, 60.3248337 ], [ 25.0647662, 60.3251887 ], [ 25.0632628, 60.3232809 ], [ 25.0632554, 60.32326 ], [ 25.0632459, 60.3232617 ], [ 25.0628105, 60.3225907 ], [ 25.0558868, 60.3239011 ], [ 25.0558831, 60.3238975 ], [ 25.0556273, 60.3239992 ], [ 25.0513907, 60.3247608 ], [ 25.0512661, 60.3247842 ], [ 25.0507765, 60.3243545 ], [ 25.0504674, 60.3226449 ], [ 25.0498518, 60.3208973 ], [ 25.0496102, 60.3203005 ] ] ] } },
{ "type": "Feature", "properties": { "Koulu": "Aurinkokivi", "Tunnus": "Aurinkokiven koulu" }, "geometry": { "type": "Polygon", "coordinates": [ [ [ 24.8261746, 60.3493885 ], [ 24.8269963, 60.3497909 ], [ 24.8269085, 60.3505958 ], [ 24.8300488, 60.3524115 ], [ 24.8311248, 60.3546916 ], [ 24.8310041, 60.3552621 ], [ 24.8312804, 60.3554949 ], [ 24.824286, 60.361167 ], [ 24.8249334, 60.3616866 ], [ 24.8107837, 60.3690247 ], [ 24.8102688, 60.3688297 ], [ 24.8092016, 60.365472 ], [ 24.8082079, 60.3604995 ], [ 24.8082287, 60.3569533 ], [ 24.8094816, 60.3503377 ], [ 24.812906, 60.3437567 ], [ 24.8171536, 60.33819 ], [ 24.8197955, 60.3340141 ], [ 24.8219224, 60.3304707 ], [ 24.8233383, 60.3284462 ], [ 24.83052, 60.3224753 ], [ 24.8305269, 60.3224756 ], [ 24.8306036, 60.3221515 ], [ 24.8314686, 60.3215447 ], [ 24.8340651, 60.3194012 ], [ 24.8345429, 60.3192533 ], [ 24.8345159, 60.3192544 ], [ 24.8346507, 60.3191479 ], [ 24.8348025, 60.3190952 ], [ 24.8347696, 60.3190946 ], [ 24.8383121, 60.3159723 ], [ 24.8386271, 60.3158254 ], [ 24.8430867, 60.3116331 ], [ 24.844923, 60.3079782 ], [ 24.8457071, 60.3040846 ], [ 24.8473456, 60.3016643 ], [ 24.8509003, 60.2986762 ], [ 24.8541631, 60.2966376 ], [ 24.8574722, 60.2927692 ], [ 24.8696924, 60.2969885 ], [ 24.8741403, 60.2977583 ], [ 24.8811486, 60.2979517 ], [ 24.8841109, 60.2979414 ], [ 24.8841405, 60.2994272 ], [ 24.8839742, 60.3000098 ], [ 24.8824374, 60.3018409 ], [ 24.8826191, 60.3045745 ], [ 24.8837437, 60.3062024 ], [ 24.8852261, 60.3070773 ], [ 24.8869697, 60.307602 ], [ 24.8893737, 60.3085779 ], [ 24.8903123, 60.3093224 ], [ 24.8888643, 60.3117181 ], [ 24.8855738, 60.3139385 ], [ 24.86586, 60.3195743 ], [ 24.8608506, 60.3183843 ], [ 24.8551532, 60.3205582 ], [ 24.8531682, 60.3211686 ], [ 24.8509552, 60.3213514 ], [ 24.8502633, 60.3218921 ], [ 24.8502302, 60.3228324 ], [ 24.8485353, 60.322802 ], [ 24.8485276, 60.3227978 ], [ 24.8477773, 60.3234996 ], [ 24.847338, 60.3234668 ], [ 24.8452072, 60.3232465 ], [ 24.8451585, 60.3231489 ], [ 24.8441274, 60.3228272 ], [ 24.8427407, 60.3226386 ], [ 24.8417551, 60.3227139 ], [ 24.840786, 60.3226352 ], [ 24.8391019, 60.3241013 ], [ 24.8391075, 60.3241025 ], [ 24.8389133, 60.3241663 ], [ 24.8388223, 60.3251494 ], [ 24.8382022, 60.3256117 ], [ 24.8372659, 60.3261235 ], [ 24.8366022, 60.3266855 ], [ 24.8360528, 60.3273758 ], [ 24.8360492, 60.3281025 ], [ 24.83579, 60.3282019 ], [ 24.8358578, 60.3282942 ], [ 24.8358326, 60.3282894 ], [ 24.8356731, 60.3289288 ], [ 24.8344486, 60.3305197 ], [ 24.8344413, 60.3307982 ], [ 24.8311868, 60.3308368 ], [ 24.8301045, 60.3326497 ], [ 24.8331041, 60.3342968 ], [ 24.8342889, 60.3342926 ], [ 24.8340186, 60.3347148 ], [ 24.8364392, 60.3364456 ], [ 24.834331, 60.3411069 ], [ 24.8330956, 60.3407232 ], [ 24.8304565, 60.3407397 ], [ 24.8292104, 60.3410906 ], [ 24.8273284, 60.3419603 ], [ 24.8269542, 60.342563 ], [ 24.8277759, 60.3442524 ], [ 24.8276163, 60.3447896 ], [ 24.8263962, 60.3461698 ], [ 24.8251044, 60.3464353 ], [ 24.823314, 60.346598 ], [ 24.8228668, 60.3469424 ], [ 24.8226757, 60.3479516 ], [ 24.821873, 60.3487287 ], [ 24.8219325, 60.3493718 ], [ 24.8236131, 60.3492059 ], [ 24.8261746, 60.3493885 ] ] ] } },
{ "type": "Feature", "properties": { "Koulu": "Rekola", "Tunnus": "Rekolan koulu" }, "geometry": { "type": "Polygon", "coordinates": [ [ [ 25.0912797, 60.3282844 ], [ 25.0917904, 60.3286959 ], [ 25.0907581, 60.3295865 ], [ 25.0907695, 60.3299286 ], [ 25.0909894, 60.3301507 ], [ 25.0920331, 60.3303922 ], [ 25.092316, 60.3309166 ], [ 25.0927751, 60.3311497 ], [ 25.0927693, 60.3317686 ], [ 25.0915596, 60.3321207 ], [ 25.0914857, 60.3322926 ], [ 25.0918454, 60.3326261 ], [ 25.0923889, 60.3328635 ], [ 25.0884332, 60.3332608 ], [ 25.0780916, 60.3351671 ], [ 25.0724089, 60.3359144 ], [ 25.0707271, 60.336274 ], [ 25.0690046, 60.3333075 ], [ 25.0653078, 60.3290349 ], [ 25.0643485, 60.3282755 ], [ 25.0616077, 60.3292508 ], [ 25.0593176, 60.3276957 ], [ 25.0583076, 60.3266162 ], [ 25.0583044, 60.3266045 ], [ 25.0582997, 60.3266056 ], [ 25.0559526, 60.3239652 ], [ 25.0558868, 60.3239011 ], [ 25.0628105, 60.3225907 ], [ 25.0632459, 60.3232617 ], [ 25.0632554, 60.32326 ], [ 25.0632628, 60.3232809 ], [ 25.0647662, 60.3251887 ], [ 25.0666973, 60.3248337 ], [ 25.0660914, 60.3240847 ], [ 25.065414, 60.3232178 ], [ 25.0655721, 60.322794 ], [ 25.068353, 60.3222998 ], [ 25.068872, 60.3233836 ], [ 25.06926, 60.3236552 ], [ 25.0699373, 60.323423 ], [ 25.0703807, 60.3230556 ], [ 25.0704862, 60.3220565 ], [ 25.0705616, 60.3215055 ], [ 25.0735097, 60.3208485 ], [ 25.0746424, 60.3220542 ], [ 25.0769394, 60.3214735 ], [ 25.0777999, 60.3212108 ], [ 25.0782257, 60.3213462 ], [ 25.0788976, 60.3219632 ], [ 25.0805485, 60.3215585 ], [ 25.0815053, 60.3212017 ], [ 25.0826563, 60.3219491 ], [ 25.0838768, 60.3217583 ], [ 25.0862973, 60.3213775 ], [ 25.0863973, 60.3215898 ], [ 25.0865601, 60.3227771 ], [ 25.0874248, 60.3238531 ], [ 25.0885133, 60.3249764 ], [ 25.0896009, 60.3257672 ], [ 25.0893785, 60.326179 ], [ 25.0885814, 60.3265436 ], [ 25.0882956, 60.3271137 ], [ 25.0889037, 60.3276833 ], [ 25.0901173, 60.3278091 ], [ 25.0912032, 60.3279192 ], [ 25.0912797, 60.3282844 ] ] ] } }
]
}
