{
"type": "FeatureCollection",
"name": "ylakoulut_alueet",
"features": [
{ "type": "Feature", "properties": { "Koulu": "Sotunki", "Tunnus": "Sotungin koulu" }, "geometry": { "type": "Polygon", "coordinates": [ [ [ 25.1695873, 60.3114965 ], [ 25.1398536, 60.319379 ], [ 25.1356553, 60.3204835 ], [ 25.1356514, 60.3204812 ], [ 25.1264685, 60.3160209 ], [ 25.1140543, 60.3105338 ], [ 25.1086066, 60.312993 ], [ 25.1061591, 60.3103696 ], [ 25.1030758, 60.3102807 ], [ 25.1009622, 60.3075245 ], [ 25.0976267, 60.3070609 ], [ 25.0952939, 60.3088453 ], [ 25.0938355, 60.3081562 ], [ 25.0942051, 60.3058524 ], [ 25.0918536, 60.3035981 ], [ 25.0863867, 60.2992798 ], [ 25.0852789, 60.2964783 ], [ 25.0835625, 60.2937118 ], [ 25.0810003, 60.2882408 ], [ 25.0808834, 60.2878441 ], [ 25.0933267, 60.2851878 ], [ 25.0960823, 60.2860048 ], [ 25.1015656, 60.287783 ], [ 25.1030142, 60.2864181 ], [ 25.1035918, 60.2851389 ], [ 25.1036005, 60.2834125 ], [ 25.1036095, 60.2834143 ], [ 25.1033867, 60.2832247 ], [ 25.1057408, 60.2825208 ], [ 25.1075245, 60.2823689 ], [ 25.1079112, 60.28226 ], [ 25.1077761, 60.2821096 ], [ 25.1092733, 60.2818744 ], [ 25.1100277, 60.2809879 ], [ 25.1117627, 60.2814294 ], [ 25.1125389, 60.2815993 ], [ 25.113227, 60.2808107 ], [ 25.1132643, 60.2805352 ], [ 25.1131292, 60.2801839 ], [ 25.1136817, 60.2795565 ], [ 25.1136229, 60.2791386 ], [ 25.1155691, 60.2777596 ], [ 25.1193324, 60.2764549 ], [ 25.122558, 60.2746662 ], [ 25.1279031, 60.2720869 ], [ 25.1334783, 60.2667621 ], [ 25.1378639, 60.2638699 ], [ 25.1424496, 60.2632059 ], [ 25.1423587, 60.2633066 ], [ 25.1417299, 60.2648122 ], [ 25.1418651, 60.2655837 ], [ 25.1430983, 60.2658249 ], [ 25.1418879, 60.2683041 ], [ 25.1424902, 60.2697382 ], [ 25.1425104, 60.2697865 ], [ 25.1723577, 60.2764416 ], [ 25.1737541, 60.2782682 ], [ 25.1748028, 60.2783393 ], [ 25.1785405, 60.2777844 ], [ 25.1876263, 60.2798956 ], [ 25.1930596, 60.2922633 ], [ 25.1695873, 60.3114965 ] ] ] } },
{ "type": "Feature", "properties": { "Koulu": "Hämeenkylä", "Tunnus": "Hämeenkylän koulu" }, "geometry": { "type": "Polygon", "coordinates": [ [ [ 24.8351964, 60.2709559 ], [ 24.8354807, 60.2757804 ], [ 24.8357861, 60.2802675 ], [ 24.8355348, 60.2816704 ], [ 24.834708, 60.2830057 ], [ 24.8336759, 60.283796 ], [ 24.8320127, 60.2842338 ], [ 24.8297198, 60.2843669 ], [ 24.828432, 60.2845174 ], [ 24.8270558, 60.2849536 ], [ 24.8245709, 60.2869641 ], [ 24.8235052, 60.2888175 ], [ 24.824026, 60.2905066 ], [ 24.8239348, 60.2916353 ], [ 24.8101667, 60.3080786 ], [ 24.7609654, 60.3252333 ], [ 24.7717758, 60.2992431 ], [ 24.7715554, 60.2983575 ], [ 24.764913, 60.271249 ], [ 24.7652242, 60.270595 ], [ 24.765473, 60.2700716 ], [ 24.7656249, 60.2701602 ], [ 24.7667832, 60.269692 ], [ 24.7699736, 60.2683512 ], [ 24.7684901, 60.2668858 ], [ 24.7671186, 60.2663132 ], [ 24.7679676, 60.2643416 ], [ 24.7679088, 60.2638542 ], [ 24.7677541, 60.2636896 ], [ 24.7679312, 60.2634902 ], [ 24.7691908, 60.2620646 ], [ 24.7694816, 60.2620919 ], [ 24.7697859, 60.2619824 ], [ 24.7699688, 60.2617623 ], [ 24.7698705, 60.2612687 ], [ 24.771058, 60.260167 ], [ 24.7740115, 60.2574266 ], [ 24.7762381, 60.2541212 ], [ 24.7796881, 60.2547271 ], [ 24.7828612, 60.2546943 ], [ 24.7857112, 60.2572206 ], [ 24.791415, 60.2571013 ], [ 24.7924171, 60.2573285 ], [ 24.7932494, 60.2579591 ], [ 24.7955419, 60.2581704 ], [ 24.7961907, 60.2579119 ], [ 24.7987794, 60.258574 ], [ 24.8037099, 60.2588094 ], [ 24.8047373, 60.2589875 ], [ 24.8063183, 60.2582065 ], [ 24.807445, 60.2584076 ], [ 24.8077727, 60.2579332 ], [ 24.8087848, 60.2581151 ], [ 24.8094591, 60.2572042 ], [ 24.8141177, 60.2598434 ], [ 24.8140805, 60.2597117 ], [ 24.8146552, 60.2589539 ], [ 24.8160912, 60.2574108 ], [ 24.8177352, 60.2566598 ], [ 24.8190921, 60.2575481 ], [ 24.8188909, 60.2576591 ], [ 24.8187067, 60.258129 ], [ 24.8189338, 60.258533 ], [ 24.8197327, 60.2592655 ], [ 24.8196618, 60.2599921 ], [ 24.8196678, 60.2602236 ], [ 24.8196748, 60.2602212 ], [ 24.8267808, 60.2650327 ], [ 24.8280208, 60.264954 ], [ 24.8280901, 60.265445 ], [ 24.8292219, 60.2654554 ], [ 24.8293209, 60.26545 ], [ 24.8293162, 60.2663609 ], [ 24.8285977, 60.2666521 ], [ 24.8294419, 60.2670094 ], [ 24.8348108, 60.2680416 ], [ 24.8354349, 60.2685473 ], [ 24.8351964, 60.2709559 ] ] ] } },
{ "type": "Feature", "properties": { "Koulu": "Ylästö", "Tunnus": "Ylästön koulu" }, "geometry": { "type": "Polygon", "coordinates": [ [ [ 24.9167019, 60.3036859 ], [ 24.9083647, 60.3035969 ], [ 24.9058407, 60.3041502 ], [ 24.9001281, 60.3066556 ], [ 24.8949684, 60.3076556 ], [ 24.8925539, 60.3082885 ], [ 24.8903123, 60.3093224 ], [ 24.8893737, 60.3085779 ], [ 24.8869697, 60.307602 ], [ 24.8852261, 60.3070773 ], [ 24.8837437, 60.3062024 ], [ 24.8826191, 60.3045745 ], [ 24.8824374, 60.3018409 ], [ 24.8839742, 60.3000098 ], [ 24.8841405, 60.2994272 ], [ 24.8840661, 60.2956952 ], [ 24.8859154, 60.2926465 ], [ 24.8856612, 60.2921688 ], [ 24.8879667, 60.2911147 ], [ 24.8881486, 60.2889161 ], [ 24.8876279, 60.2875212 ], [ 24.8861987, 60.2852536 ], [ 24.8857468, 60.2834188 ], [ 24.8840431, 60.2799143 ], [ 24.8836166, 60.2760339 ], [ 24.8828298, 60.2754957 ], [ 24.881887, 60.2739358 ], [ 24.8802484, 60.272828 ], [ 24.8802904, 60.2719967 ], [ 24.8823424, 60.2717274 ], [ 24.883176, 60.271626 ], [ 24.8840584, 60.2709489 ], [ 24.8847709, 60.2691122 ], [ 24.8855712, 60.2682478 ], [ 24.8870405, 60.2677674 ], [ 24.8886974, 60.2681247 ], [ 24.8925547, 60.2684932 ], [ 24.8927674, 60.2684314 ], [ 24.8927964, 60.2685431 ], [ 24.8972059, 60.2685892 ], [ 24.9043659, 60.2699805 ], [ 24.9077817, 60.2708586 ], [ 24.9101341, 60.2708474 ], [ 24.911816, 60.2719712 ], [ 24.9203245, 60.2731267 ], [ 24.9250344, 60.2749591 ], [ 24.9312191, 60.2750024 ], [ 24.9384337, 60.2764279 ], [ 24.9383771, 60.2764785 ], [ 24.9347115, 60.2795673 ], [ 24.9366652, 60.2801043 ], [ 24.9347042, 60.2816437 ], [ 24.9350451, 60.2827457 ], [ 24.9304068, 60.2865546 ], [ 24.9304538, 60.2882097 ], [ 24.93378, 60.2918083 ], [ 24.9295916, 60.2930827 ], [ 24.9228963, 60.2945531 ], [ 24.9175658, 60.2947555 ], [ 24.9171982, 60.2959168 ], [ 24.9196102, 60.2962975 ], [ 24.9213602, 60.297122 ], [ 24.9170925, 60.2992947 ], [ 24.9166813, 60.3036679 ], [ 24.9167019, 60.3036859 ] ] ] } },
{ "type": "Feature", "properties": { "Koulu": "Kannisto", "Tunnus": "Kanniston koulu" }, "geometry": { "type": "Polygon", "coordinates": [ [ [ 24.9321204, 60.3453806 ], [ 24.9284094, 60.3480621 ], [ 24.9064774, 60.3648175 ], [ 24.8944127, 60.3716241 ], [ 24.8771065, 60.3824219 ], [ 24.8761552, 60.3828629 ], [ 24.8752184, 60.3834207 ], [ 24.876655, 60.384657 ], [ 24.8772489, 60.385928 ], [ 24.8769871, 60.389498 ], [ 24.8757399, 60.3906602 ], [ 24.8726361, 60.3920016 ], [ 24.8716236, 60.3928539 ], [ 24.8676515, 60.3945639 ], [ 24.8679914, 60.3962756 ], [ 24.8675287, 60.3975532 ], [ 24.8662399, 60.3980875 ], [ 24.8662678, 60.3986804 ], [ 24.8686513, 60.3999769 ], [ 24.8691066, 60.4006324 ], [ 24.8688241, 60.4012375 ], [ 24.8305087, 60.3944908 ], [ 24.8153841, 60.3846415 ], [ 24.8157319, 60.381575 ], [ 24.814915, 60.3775963 ], [ 24.8129085, 60.372013 ], [ 24.8098263, 60.3660125 ], [ 24.8090154, 60.3612026 ], [ 24.8085611, 60.3569275 ], [ 24.8101541, 60.3508743 ], [ 24.8124615, 60.3454751 ], [ 24.815358, 60.3416797 ], [ 24.8233815, 60.3419874 ], [ 24.8310599, 60.3395633 ], [ 24.8367099, 60.3354146 ], [ 24.838638, 60.332173 ], [ 24.8420895, 60.3302346 ], [ 24.8388836, 60.3288465 ], [ 24.8398234, 60.326921 ], [ 24.839261, 60.3267131 ], [ 24.8403715, 60.3257527 ], [ 24.8409961, 60.3258515 ], [ 24.8422822, 60.3250582 ], [ 24.8435671, 60.3244934 ], [ 24.8453661, 60.32535 ], [ 24.8465498, 60.3257114 ], [ 24.8468601, 60.3254149 ], [ 24.8475328, 60.3249407 ], [ 24.848299, 60.3249416 ], [ 24.8492087, 60.3249663 ], [ 24.8491086, 60.3245222 ], [ 24.8488853, 60.3243553 ], [ 24.8500118, 60.324014 ], [ 24.851258, 60.3237661 ], [ 24.8527671, 60.3236134 ], [ 24.8533666, 60.3233884 ], [ 24.8534464, 60.323193 ], [ 24.8533914, 60.3230916 ], [ 24.8532785, 60.3228986 ], [ 24.8533696, 60.3218987 ], [ 24.8537923, 60.3215952 ], [ 24.8552495, 60.3212548 ], [ 24.8556712, 60.3211603 ], [ 24.8566304, 60.3208004 ], [ 24.8573988, 60.3202693 ], [ 24.8597019, 60.3191509 ], [ 24.8637999, 60.3192311 ], [ 24.8670191, 60.3188164 ], [ 24.8674409, 60.3187028 ], [ 24.8678285, 60.3186964 ], [ 24.8678287, 60.3186607 ], [ 24.8808292, 60.3149032 ], [ 24.8870004, 60.3126823 ], [ 24.8928722, 60.3102827 ], [ 24.8953871, 60.3096614 ], [ 24.9014914, 60.3091614 ], [ 24.9102258, 60.3094348 ], [ 24.9146544, 60.3089627 ], [ 24.9193235, 60.3080158 ], [ 24.9209687, 60.3074224 ], [ 24.9213329, 60.3077413 ], [ 24.9229569, 60.3087917 ], [ 24.9222266, 60.3092277 ], [ 24.9213563, 60.3098528 ], [ 24.9189975, 60.3124244 ], [ 24.9153335, 60.317043 ], [ 24.9151772, 60.3174589 ], [ 24.9159511, 60.3181324 ], [ 24.9298037, 60.3246159 ], [ 24.9431877, 60.3308464 ], [ 24.9534662, 60.3330346 ], [ 24.9430753, 60.3384585 ], [ 24.9417784, 60.3391352 ], [ 24.9321204, 60.3453806 ] ] ] } },
{ "type": "Feature", "properties": { "Koulu": "Kilteri (Sanomala)", "Tunnus": "Kilterin koulu (Sanomala)" }, "geometry": { "type": "Polygon", "coordinates": [ [ [ 24.8859154, 60.2926465 ], [ 24.8840661, 60.2956952 ], [ 24.8841109, 60.2979414 ], [ 24.8811486, 60.2979517 ], [ 24.8741403, 60.2977583 ], [ 24.8696924, 60.2969885 ], [ 24.8568584, 60.2925572 ], [ 24.8548373, 60.2922106 ], [ 24.8456657, 60.2923492 ], [ 24.8448438, 60.2922747 ], [ 24.8454677, 60.2907999 ], [ 24.8463403, 60.2883431 ], [ 24.8474994, 60.2867773 ], [ 24.8488784, 60.2857769 ], [ 24.8501461, 60.2846954 ], [ 24.8524145, 60.2822662 ], [ 24.8545663, 60.2801789 ], [ 24.8548401, 60.2788303 ], [ 24.8540471, 60.2764927 ], [ 24.8546211, 60.2764554 ], [ 24.8564883, 60.2764182 ], [ 24.857105, 60.2761257 ], [ 24.8561879, 60.2750257 ], [ 24.8600606, 60.2749382 ], [ 24.8610852, 60.2748884 ], [ 24.8617214, 60.2746449 ], [ 24.8636882, 60.2746571 ], [ 24.8652048, 60.2745365 ], [ 24.8683188, 60.2746109 ], [ 24.8701207, 60.2748772 ], [ 24.8701307, 60.2759096 ], [ 24.871976, 60.2741222 ], [ 24.872016, 60.2739082 ], [ 24.8736967, 60.2737823 ], [ 24.8773612, 60.2727485 ], [ 24.8801429, 60.2726142 ], [ 24.8802592, 60.2726136 ], [ 24.8802484, 60.272828 ], [ 24.881887, 60.2739358 ], [ 24.8828298, 60.2754957 ], [ 24.8836166, 60.2760339 ], [ 24.8840431, 60.2799143 ], [ 24.8857468, 60.2834188 ], [ 24.8861987, 60.2852536 ], [ 24.8876279, 60.2875212 ], [ 24.8881486, 60.2889161 ], [ 24.8879667, 60.2911147 ], [ 24.8856612, 60.2921688 ], [ 24.8859154, 60.2926465 ] ] ] } },
{ "type": "Feature", "properties": { "Koulu": "Kilteri", "Tunnus": "Kilterin koulu" }, "geometry": { "type": "Polygon", "coordinates": [ [ [ 24.8855712, 60.2682478 ], [ 24.8847709, 60.2691122 ], [ 24.8840584, 60.2709489 ], [ 24.883176, 60.271626 ], [ 24.8823424, 60.2717274 ], [ 24.8802904, 60.2719967 ], [ 24.8802592, 60.2726136 ], [ 24.8801429, 60.2726142 ], [ 24.8773612, 60.2727485 ], [ 24.8736967, 60.2737823 ], [ 24.872009, 60.2739087 ], [ 24.8742768, 60.2716423 ], [ 24.8750736, 60.2664187 ], [ 24.8757458, 60.2624713 ], [ 24.8724591, 60.262676 ], [ 24.8676151, 60.2638289 ], [ 24.865281, 60.2648062 ], [ 24.864728, 60.2648056 ], [ 24.8648131, 60.2653704 ], [ 24.8642127, 60.2660525 ], [ 24.8596009, 60.2686303 ], [ 24.8579873, 60.2686582 ], [ 24.8582941, 60.2668181 ], [ 24.8561433, 60.2667565 ], [ 24.8544089, 60.2671108 ], [ 24.841799, 60.2669879 ], [ 24.841364, 60.2684012 ], [ 24.8405161, 60.2707452 ], [ 24.8392948, 60.2718398 ], [ 24.8351982, 60.2709379 ], [ 24.8354349, 60.2685473 ], [ 24.8348108, 60.2680416 ], [ 24.8294419, 60.2670094 ], [ 24.8285977, 60.2666521 ], [ 24.8293162, 60.2663609 ], [ 24.8293209, 60.26545 ], [ 24.8292219, 60.2654554 ], [ 24.8280901, 60.265445 ], [ 24.8280208, 60.264954 ], [ 24.8267808, 60.2650327 ], [ 24.8196748, 60.2602212 ], [ 24.8196678, 60.2602236 ], [ 24.8196618, 60.2599921 ], [ 24.8197327, 60.2592655 ], [ 24.8189338, 60.258533 ], [ 24.8187067, 60.258129 ], [ 24.8188909, 60.2576591 ], [ 24.8190921, 60.2575481 ], [ 24.8177352, 60.2566598 ], [ 24.8160912, 60.2574108 ], [ 24.8146552, 60.2589539 ], [ 24.8140805, 60.2597117 ], [ 24.8141177, 60.2598434 ], [ 24.8094591, 60.2572042 ], [ 24.8087848, 60.2581151 ], [ 24.8077727, 60.2579332 ], [ 24.807445, 60.2584076 ], [ 24.8063183, 60.2582065 ], [ 24.8047373, 60.2589875 ], [ 24.8037099, 60.2588094 ], [ 24.7987794, 60.258574 ], [ 24.7961907, 60.2579119 ], [ 24.7955419, 60.2581704 ], [ 24.7932494, 60.2579591 ], [ 24.7924171, 60.2573285 ], [ 24.791415, 60.2571013 ], [ 24.7857112, 60.2572206 ], [ 24.7828612, 60.2546943 ], [ 24.7796881, 60.2547271 ], [ 24.7762381, 60.2541212 ], [ 24.7847256, 60.2415151 ], [ 24.7924474, 60.243634 ], [ 24.7976229, 60.2450013 ], [ 24.828607, 60.2533255 ], [ 24.8336571, 60.2546782 ], [ 24.834706, 60.2585095 ], [ 24.8357516, 60.2588797 ], [ 24.8375307, 60.259114 ], [ 24.8386141, 60.2591071 ], [ 24.8577866, 60.2536195 ], [ 24.8624656, 60.2531544 ], [ 24.8638648, 60.2537494 ], [ 24.8642813, 60.2539271 ], [ 24.864601, 60.2537053 ], [ 24.8656433, 60.2533024 ], [ 24.8666608, 60.2532872 ], [ 24.8671055, 60.2531628 ], [ 24.8675305, 60.252738 ], [ 24.867606, 60.2525091 ], [ 24.8678481, 60.2523902 ], [ 24.8687367, 60.253278 ], [ 24.8723888, 60.2541544 ], [ 24.8771984, 60.2602854 ], [ 24.8913793, 60.2664048 ], [ 24.8924357, 60.2671534 ], [ 24.8927674, 60.2684314 ], [ 24.8925547, 60.2684932 ], [ 24.8886974, 60.2681247 ], [ 24.8870405, 60.2677674 ], [ 24.8855712, 60.2682478 ] ] ] } },
{ "type": "Feature", "properties": { "Koulu": "Kartanonkoski", "Tunnus": "Kartanonkosken koulu" }, "geometry": { "type": "Polygon", "coordinates": [ [ [ 24.9705224, 60.2838238 ], [ 24.9701406, 60.2828707 ], [ 24.9660537, 60.2830811 ], [ 24.965019, 60.2827829 ], [ 24.9637589, 60.282872 ], [ 24.9630982, 60.2835272 ], [ 24.9620329, 60.2837652 ], [ 24.961043, 60.2836458 ], [ 24.9588384, 60.2832951 ], [ 24.9586679, 60.2831777 ], [ 24.9586668, 60.2831809 ], [ 24.9551606, 60.2824595 ], [ 24.9559746, 60.2817315 ], [ 24.9559921, 60.2816951 ], [ 24.95283, 60.2809155 ], [ 24.9477264, 60.2784348 ], [ 24.9490318, 60.2781911 ], [ 24.952667, 60.2782337 ], [ 24.9531764, 60.2770982 ], [ 24.9542727, 60.2767703 ], [ 24.9561407, 60.2764453 ], [ 24.956794, 60.2756873 ], [ 24.9557407, 60.2733551 ], [ 24.9564498, 60.2719471 ], [ 24.9599444, 60.269428 ], [ 24.9602181, 60.2683662 ], [ 24.9655203, 60.266367 ], [ 24.9687126, 60.2656714 ], [ 24.9711475, 60.2646195 ], [ 24.9731981, 60.264463 ], [ 24.9757156, 60.2650248 ], [ 24.9755698, 60.2663986 ], [ 24.9781474, 60.2679498 ], [ 24.975369, 60.2697189 ], [ 24.9770558, 60.2715661 ], [ 24.9773101, 60.273831 ], [ 24.9807455, 60.2759266 ], [ 24.9808819, 60.2775333 ], [ 24.9818971, 60.2780266 ], [ 24.9822555, 60.2787619 ], [ 24.9796344, 60.2790144 ], [ 24.9780006, 60.2797284 ], [ 24.9783834, 60.282157 ], [ 24.9728952, 60.282599 ], [ 24.9705224, 60.2838238 ] ] ] } },
{ "type": "Feature", "properties": { "Koulu": "Veromäki", "Tunnus": "Veromäen koulu" }, "geometry": { "type": "Polygon", "coordinates": [ [ [ 24.9701406, 60.2828707 ], [ 24.9705224, 60.2838238 ], [ 24.9728952, 60.282599 ], [ 24.9783834, 60.282157 ], [ 24.9780006, 60.2797284 ], [ 24.9796344, 60.2790144 ], [ 24.9822555, 60.2787619 ], [ 24.9823795, 60.2790163 ], [ 24.9837288, 60.2797109 ], [ 24.9850005, 60.2796699 ], [ 24.9857654, 60.2798709 ], [ 24.9897673, 60.2796987 ], [ 24.993485, 60.2812867 ], [ 24.9956496, 60.2813457 ], [ 24.9996625, 60.2847158 ], [ 24.9999181, 60.2859105 ], [ 24.9950216, 60.2871875 ], [ 24.9919761, 60.2881078 ], [ 24.9878729, 60.2899335 ], [ 24.985879, 60.2897689 ], [ 24.9849699, 60.2895961 ], [ 24.9846028, 60.2894193 ], [ 24.9833401, 60.2895183 ], [ 24.9821097, 60.2906942 ], [ 24.9846081, 60.2956126 ], [ 24.9851748, 60.2964162 ], [ 24.9896424, 60.3000398 ], [ 24.9916794, 60.3022023 ], [ 24.9939177, 60.3044295 ], [ 24.9898882, 60.308768 ], [ 24.9893458, 60.308772 ], [ 24.984589, 60.313026 ], [ 24.9834061, 60.3158173 ], [ 24.9756654, 60.3232344 ], [ 24.9759611, 60.3260007 ], [ 24.9778096, 60.3268746 ], [ 24.9806201, 60.3277745 ], [ 24.9824155, 60.3290761 ], [ 24.9822037, 60.3308528 ], [ 24.9848965, 60.3329283 ], [ 24.9710896, 60.3328577 ], [ 24.954568, 60.3324594 ], [ 24.9534662, 60.3330346 ], [ 24.9431877, 60.3308464 ], [ 24.9298037, 60.3246159 ], [ 24.9159511, 60.3181324 ], [ 24.9151772, 60.3174589 ], [ 24.9153335, 60.317043 ], [ 24.9189975, 60.3124244 ], [ 24.9213563, 60.3098528 ], [ 24.9222266, 60.3092277 ], [ 24.9229569, 60.3087917 ], [ 24.9213329, 60.3077413 ], [ 24.9166813, 60.3036679 ], [ 24.9170925, 60.2992947 ], [ 24.9213602, 60.297122 ], [ 24.9196102, 60.2962975 ], [ 24.9171982, 60.2959168 ], [ 24.9175658, 60.2947555 ], [ 24.9228963, 60.2945531 ], [ 24.9295916, 60.2930827 ], [ 24.93378, 60.2918083 ], [ 24.9304538, 60.2882097 ], [ 24.9304068, 60.2865546 ], [ 24.9350451, 60.2827457 ], [ 24.9347042, 60.2816437 ], [ 24.9366652, 60.2801043 ], [ 24.9347115, 60.2795673 ], [ 24.9383771, 60.2764785 ], [ 24.9384337, 60.2764279 ], [ 24.9401544, 60.2767679 ], [ 24.9465585, 60.2786529 ], [ 24.9477264, 60.2784348 ], [ 24.95283, 60.2809155 ], [ 24.9559921, 60.2816951 ], [ 24.9559746, 60.2817315 ], [ 24.9551606, 60.2824595 ], [ 24.9586668, 60.2831809 ], [ 24.9586679, 60.2831777 ], [ 24.9588384, 60.2832951 ], [ 24.961043, 60.2836458 ], [ 24.9620329, 60.2837652 ], [ 24.9630982, 60.2835272 ], [ 24.9637589, 60.282872 ], [ 24.965019, 60.2827829 ], [ 24.9660537, 60.2830811 ], [ 24.9701406, 60.2828707 ] ] ] } },
{ "type": "Feature", "properties": { "Koulu": "Simonkylä", "Tunnus": "Simonkylän koulu" }, "geometry": { "type": "Polygon", "coordinates": [ [ [ 25.0161867, 60.321001 ], [ 25.0161881, 60.3210021 ], [ 25.01718, 60.3204257 ], [ 25.0180807, 60.3202054 ], [ 25.0207311, 60.3205158 ], [ 25.0238121, 60.32047 ], [ 25.0236931, 60.3183527 ], [ 25.0212374, 60.3162099 ], [ 25.0207802, 60.3156531 ], [ 25.0212493, 60.3144422 ], [ 25.0237674, 60.3128748 ], [ 25.0259069, 60.3115406 ], [ 25.0258933, 60.3108607 ], [ 25.0260286, 60.3105244 ], [ 25.0264617, 60.3103429 ], [ 25.0277599, 60.3096663 ], [ 25.028502, 60.3098264 ], [ 25.0290521, 60.3094463 ], [ 25.02904, 60.3093692 ], [ 25.0302605, 60.3092798 ], [ 25.0303559, 60.308904 ], [ 25.0312405, 60.3080845 ], [ 25.0319702, 60.3078469 ], [ 25.03338, 60.3072835 ], [ 25.0336389, 60.3069955 ], [ 25.0335606, 60.3053332 ], [ 25.0332143, 60.303652 ], [ 25.0351476, 60.3036135 ], [ 25.0388811, 60.3042109 ], [ 25.0409681, 60.3045997 ], [ 25.0413326, 60.3048405 ], [ 25.0444205, 60.3038276 ], [ 25.0457462, 60.3024019 ], [ 25.0475274, 60.3028025 ], [ 25.0489132, 60.3026534 ], [ 25.0566661, 60.3192107 ], [ 25.0523464, 60.3195972 ], [ 25.0462553, 60.3211627 ], [ 25.045524, 60.3217439 ], [ 25.0457936, 60.3225789 ], [ 25.0449655, 60.3237411 ], [ 25.043413, 60.3247897 ], [ 25.0435335, 60.3263944 ], [ 25.0373387, 60.3276293 ], [ 25.0372701, 60.3422206 ], [ 25.0040803, 60.3333159 ], [ 25.003865, 60.3332581 ], [ 25.0035948, 60.3332429 ], [ 25.0000579, 60.3330042 ], [ 24.9994456, 60.3330011 ], [ 24.9978674, 60.3248537 ], [ 24.9978465, 60.3195735 ], [ 24.9978674, 60.3195748 ], [ 24.9978352, 60.3195002 ], [ 25.0005215, 60.3196951 ], [ 25.0022316, 60.3184001 ], [ 25.0025318, 60.3180051 ], [ 25.0034718, 60.3182511 ], [ 25.0046989, 60.3183612 ], [ 25.0034459, 60.3208864 ], [ 25.0056261, 60.3205043 ], [ 25.0063572, 60.3202453 ], [ 25.008407, 60.3209575 ], [ 25.0087073, 60.3208538 ], [ 25.008903, 60.3205106 ], [ 25.0099344, 60.3204911 ], [ 25.0102216, 60.3206401 ], [ 25.0118404, 60.3204716 ], [ 25.0128978, 60.3202966 ], [ 25.0134723, 60.3202966 ], [ 25.0134734, 60.3202948 ], [ 25.0135101, 60.3205458 ], [ 25.0131747, 60.3215869 ], [ 25.0128953, 60.3226696 ], [ 25.0154982, 60.3227041 ], [ 25.0172754, 60.3223707 ], [ 25.0172333, 60.3221347 ], [ 25.0168414, 60.321996 ], [ 25.0166313, 60.32176 ], [ 25.0166032, 60.321413 ], [ 25.0162071, 60.3210433 ], [ 25.0161867, 60.321001 ] ] ] } },
{ "type": "Feature", "properties": { "Koulu": "Peltola", "Tunnus": "Peltolan koulu" }, "geometry": { "type": "Polygon", "coordinates": [ [ [ 24.9978674, 60.3248537 ], [ 24.9994456, 60.3330011 ], [ 24.9942151, 60.3329752 ], [ 24.9848965, 60.3329283 ], [ 24.9822037, 60.3308528 ], [ 24.9824155, 60.3290761 ], [ 24.9806201, 60.3277745 ], [ 24.9778096, 60.3268746 ], [ 24.9759611, 60.3260007 ], [ 24.9756654, 60.3232344 ], [ 24.9834061, 60.3158173 ], [ 24.984589, 60.313026 ], [ 24.9893458, 60.308772 ], [ 24.9898882, 60.308768 ], [ 24.9939177, 60.3044295 ], [ 24.9916794, 60.3022023 ], [ 24.9896424, 60.3000398 ], [ 24.9851748, 60.2964162 ], [ 24.9846081, 60.2956126 ], [ 24.9821097, 60.2906942 ], [ 24.9833401, 60.2895183 ], [ 24.9846028, 60.2894193 ], [ 24.9849699, 60.2895961 ], [ 24.985879, 60.2897689 ], [ 24.9878729, 60.2899335 ], [ 24.9919761, 60.2881078 ], [ 24.9950216, 60.2871875 ], [ 24.9999181, 60.2859105 ], [ 24.9999933, 60.2862624 ], [ 25.0011181, 60.2866736 ], [ 25.0043555, 60.286399 ], [ 25.0056821, 60.2860781 ], [ 25.0068931, 60.2864906 ], [ 25.0078698, 60.2869869 ], [ 25.0086421, 60.2878511 ], [ 25.0109794, 60.2877004 ], [ 25.0121212, 60.2873065 ], [ 25.0155098, 60.2889305 ], [ 25.0186222, 60.2889259 ], [ 25.0212804, 60.2893725 ], [ 25.0238079, 60.2881156 ], [ 25.0265776, 60.2874902 ], [ 25.0273606, 60.2864382 ], [ 25.0293822, 60.2856198 ], [ 25.030777, 60.2854506 ], [ 25.0332465, 60.2849319 ], [ 25.0345019, 60.2853565 ], [ 25.0344062, 60.2864296 ], [ 25.0354285, 60.2873333 ], [ 25.0371714, 60.2874591 ], [ 25.0378559, 60.2879869 ], [ 25.0406227, 60.2849932 ], [ 25.0406274, 60.2850027 ], [ 25.0430235, 60.2899956 ], [ 25.0404936, 60.2900636 ], [ 25.0385696, 60.2892236 ], [ 25.0355849, 60.2893954 ], [ 25.0372245, 60.292558 ], [ 25.039152, 60.2962051 ], [ 25.0393967, 60.2963033 ], [ 25.0393757, 60.2963112 ], [ 25.0410555, 60.2995112 ], [ 25.0412396, 60.2995075 ], [ 25.0471718, 60.2987219 ], [ 25.0488841, 60.3025366 ], [ 25.0488983, 60.302655 ], [ 25.0475274, 60.3028025 ], [ 25.0457462, 60.3024019 ], [ 25.0444205, 60.3038276 ], [ 25.0413326, 60.3048405 ], [ 25.0409681, 60.3045997 ], [ 25.0388811, 60.3042109 ], [ 25.0351476, 60.3036135 ], [ 25.0332143, 60.303652 ], [ 25.0335606, 60.3053332 ], [ 25.0336389, 60.3069955 ], [ 25.03338, 60.3072835 ], [ 25.0319702, 60.3078469 ], [ 25.0312405, 60.3080845 ], [ 25.0303559, 60.308904 ], [ 25.0302605, 60.3092798 ], [ 25.02904, 60.3093692 ], [ 25.0290521, 60.3094463 ], [ 25.028502, 60.3098264 ], [ 25.0277599, 60.3096663 ], [ 25.0264617, 60.3103429 ], [ 25.0260286, 60.3105244 ], [ 25.0258933, 60.3108607 ], [ 25.0259069, 60.3115406 ], [ 25.0237674, 60.3128748 ], [ 25.0212493, 60.3144422 ], [ 25.0207802, 60.3156531 ], [ 25.0212374, 60.3162099 ], [ 25.0236931, 60.3183527 ], [ 25.0238121, 60.32047 ], [ 25.0207311, 60.3205158 ], [ 25.0180807, 60.3202054 ], [ 25.01718, 60.3204257 ], [ 25.0161881, 60.3210021 ], [ 25.0161867, 60.321001 ], [ 25.0162071, 60.3210433 ], [ 25.0166032, 60.321413 ], [ 25.0166313, 60.32176 ], [ 25.0168414, 60.321996 ], [ 25.0172333, 60.3221347 ], [ 25.0172754, 60.3223707 ], [ 25.0154982, 60.3227041 ], [ 25.0128953, 60.3226696 ], [ 25.0131747, 60.3215869 ], [ 25.0135101, 60.3205458 ], [ 25.0134734, 60.3202948 ], [ 25.0134723, 60.3202966 ], [ 25.0128978, 60.3202966 ], [ 25.0118404, 60.3204716 ], [ 25.0102216, 60.3206401 ], [ 25.0099344, 60.3204911 ], [ 25.008903, 60.3205106 ], [ 25.0087073, 60.3208538 ], [ 25.008407, 60.3209575 ], [ 25.0063572, 60.3202453 ], [ 25.0056261, 60.3205043 ], [ 25.0034459, 60.3208864 ], [ 25.0046989, 60.3183612 ], [ 25.0034718, 60.3182511 ], [ 25.0025318, 60.3180051 ], [ 25.0022316, 60.3184001 ], [ 25.0005215, 60.3196951 ], [ 24.9978352, 60.3195002 ], [ 24.9978674, 60.3195748 ], [ 24.9978465, 60.3195735 ], [ 24.9978674, 60.3248537 ] ] ] } },
{ "type": "Feature", "properties": { "Koulu": "Havukoski", "Tunnus": "Havukosken koulu" }, "geometry": { "type": "Polygon", "coordinates": [ [ [ 25.0742286, 60.3215914 ], [ 25.0738638, 60.3212196 ], [ 25.0738508, 60.3211862 ], [ 25.0738492, 60.3211865 ], [ 25.0736045, 60.3208842 ], [ 25.0708118, 60.3215453 ], [ 25.0696746, 60.3203779 ], [ 25.067301, 60.3206197 ], [ 25.060562, 60.3220034 ], [ 25.0604084, 60.3218198 ], [ 25.0548176, 60.3228599 ], [ 25.0513974, 60.3198412 ], [ 25.0523464, 60.3195972 ], [ 25.0566661, 60.3192107 ], [ 25.0527489, 60.3108473 ], [ 25.0547946, 60.3100345 ], [ 25.0588027, 60.3068605 ], [ 25.0611644, 60.3061789 ], [ 25.0660201, 60.3037066 ], [ 25.0668456, 60.3041137 ], [ 25.0689526, 60.3042784 ], [ 25.0697267, 60.3049187 ], [ 25.0689579, 60.3068024 ], [ 25.0689356, 60.308447 ], [ 25.0715087, 60.3100503 ], [ 25.0728439, 60.3103235 ], [ 25.0747964, 60.3096165 ], [ 25.0770337, 60.3104057 ], [ 25.0833556, 60.3107461 ], [ 25.0853366, 60.3119731 ], [ 25.0854595, 60.3132153 ], [ 25.086565, 60.3136027 ], [ 25.0891864, 60.3129389 ], [ 25.0919901, 60.3117042 ], [ 25.0930598, 60.310819 ], [ 25.0952903, 60.3088481 ], [ 25.0976267, 60.3070609 ], [ 25.1009622, 60.3075245 ], [ 25.1030758, 60.3102807 ], [ 25.1061591, 60.3103696 ], [ 25.1086066, 60.312993 ], [ 25.1140543, 60.3105338 ], [ 25.1264685, 60.3160209 ], [ 25.1356514, 60.3204812 ], [ 25.1356553, 60.3204835 ], [ 25.1356244, 60.3204916 ], [ 25.1164352, 60.3286945 ], [ 25.104961, 60.3337773 ], [ 25.1049337, 60.3337918 ], [ 25.1025946, 60.3334455 ], [ 25.101752, 60.3334744 ], [ 25.1007727, 60.3333945 ], [ 25.1001542, 60.3334877 ], [ 25.0993219, 60.3338247 ], [ 25.0966167, 60.3339131 ], [ 25.095479, 60.3335229 ], [ 25.093094, 60.3331714 ], [ 25.0918454, 60.3326261 ], [ 25.0914857, 60.3322926 ], [ 25.0915596, 60.3321207 ], [ 25.0927693, 60.3317686 ], [ 25.0927751, 60.3311497 ], [ 25.092316, 60.3309166 ], [ 25.0920331, 60.3303922 ], [ 25.0909894, 60.3301507 ], [ 25.0907695, 60.3299286 ], [ 25.0907581, 60.3295865 ], [ 25.0917904, 60.3286959 ], [ 25.0912744, 60.3282801 ], [ 25.0912558, 60.3282833 ], [ 25.0913394, 60.3281306 ], [ 25.0904285, 60.3277869 ], [ 25.0893031, 60.3277876 ], [ 25.0885359, 60.3274557 ], [ 25.0882232, 60.3269453 ], [ 25.0885574, 60.3265414 ], [ 25.0893941, 60.3260422 ], [ 25.0894649, 60.3256859 ], [ 25.0885536, 60.3251522 ], [ 25.0878091, 60.3243216 ], [ 25.0869684, 60.323301 ], [ 25.0865121, 60.3227789 ], [ 25.0863419, 60.3217697 ], [ 25.0861731, 60.3213186 ], [ 25.0834213, 60.3218547 ], [ 25.0825839, 60.3220808 ], [ 25.0825587, 60.3222202 ], [ 25.0825524, 60.3222148 ], [ 25.0811381, 60.3226335 ], [ 25.0805422, 60.321982 ], [ 25.0796422, 60.321073 ], [ 25.0792436, 60.3206598 ], [ 25.0781272, 60.3204123 ], [ 25.0765895, 60.3209603 ], [ 25.0767439, 60.3211764 ], [ 25.0753339, 60.321508 ], [ 25.0751925, 60.3213745 ], [ 25.0742286, 60.3215914 ] ] ] } },
{ "type": "Feature", "properties": { "Koulu": "Ruusuvuori", "Tunnus": "Ruusuvuoren koulu" }, "geometry": { "type": "Polygon", "coordinates": [ [ [ 25.0805727, 60.3557761 ], [ 25.0826654, 60.3592163 ], [ 25.0855498, 60.3623313 ], [ 25.0864458, 60.3632262 ], [ 25.0864666, 60.3634266 ], [ 25.0865182, 60.3634138 ], [ 25.0895895, 60.3664344 ], [ 25.0891503, 60.3665062 ], [ 25.0853793, 60.3671171 ], [ 25.0885288, 60.3692574 ], [ 25.0852048, 60.3697727 ], [ 25.0851481, 60.3702122 ], [ 25.0828825, 60.3704435 ], [ 25.0845728, 60.372223 ], [ 25.0789951, 60.3744856 ], [ 25.0787383, 60.3739193 ], [ 25.078131, 60.3732836 ], [ 25.0773195, 60.3736118 ], [ 25.0762096, 60.3729141 ], [ 25.0727638, 60.3711698 ], [ 25.0708699, 60.3709335 ], [ 25.0715173, 60.3706801 ], [ 25.0686145, 60.3709474 ], [ 25.0671964, 60.3707526 ], [ 25.0656788, 60.3697252 ], [ 25.0643702, 60.3695564 ], [ 25.0543158, 60.3737438 ], [ 25.0536683, 60.373392 ], [ 25.0528537, 60.3734605 ], [ 25.0507523, 60.3722086 ], [ 25.0501925, 60.3709479 ], [ 25.042955, 60.3679499 ], [ 25.0382761, 60.37082 ], [ 25.0345794, 60.3694601 ], [ 25.0312552, 60.3715889 ], [ 25.028342, 60.3705395 ], [ 25.0211342, 60.3678709 ], [ 25.0288119, 60.3627764 ], [ 25.0481468, 60.3495633 ], [ 25.049195, 60.3488488 ], [ 25.048013, 60.3484345 ], [ 25.0485539, 60.3480705 ], [ 25.0488729, 60.3480912 ], [ 25.0492207, 60.3474803 ], [ 25.0439376, 60.3451684 ], [ 25.0437422, 60.3450801 ], [ 25.0738198, 60.3424881 ], [ 25.0760605, 60.3468619 ], [ 25.0761294, 60.346861 ], [ 25.0760846, 60.3469231 ], [ 25.0751409, 60.3467174 ], [ 25.0722162, 60.3472023 ], [ 25.0722754, 60.3494845 ], [ 25.0726573, 60.3506389 ], [ 25.0726056, 60.3517666 ], [ 25.0722859, 60.3542101 ], [ 25.0746748, 60.356142 ], [ 25.0805727, 60.3557761 ] ] ] } },
{ "type": "Feature", "properties": { "Koulu": "Koivukylä", "Tunnus": "Koivukylän koulu" }, "geometry": { "type": "Polygon", "coordinates": [ [ [ 25.0917904, 60.3286959 ], [ 25.0907581, 60.3295865 ], [ 25.0907695, 60.3299286 ], [ 25.0909894, 60.3301507 ], [ 25.0920331, 60.3303922 ], [ 25.092316, 60.3309166 ], [ 25.0927751, 60.3311497 ], [ 25.0927693, 60.3317686 ], [ 25.0915596, 60.3321207 ], [ 25.0914857, 60.3322926 ], [ 25.0918454, 60.3326261 ], [ 25.0922994, 60.3328244 ], [ 25.0889284, 60.3332366 ], [ 25.0706056, 60.3362872 ], [ 25.0737988, 60.3424529 ], [ 25.073801, 60.3424898 ], [ 25.0437422, 60.3450801 ], [ 25.0382498, 60.342599 ], [ 25.0376191, 60.3423141 ], [ 25.0372701, 60.3422206 ], [ 25.0373387, 60.3276293 ], [ 25.0435335, 60.3263944 ], [ 25.043413, 60.3247897 ], [ 25.0449655, 60.3237411 ], [ 25.0457936, 60.3225789 ], [ 25.045524, 60.3217439 ], [ 25.0462553, 60.3211627 ], [ 25.0513974, 60.3198412 ], [ 25.0548176, 60.3228599 ], [ 25.0604084, 60.3218198 ], [ 25.060562, 60.3220034 ], [ 25.067301, 60.3206197 ], [ 25.0696746, 60.3203779 ], [ 25.0708118, 60.3215453 ], [ 25.0736045, 60.3208842 ], [ 25.0738492, 60.3211865 ], [ 25.0738508, 60.3211862 ], [ 25.0738638, 60.3212196 ], [ 25.0742286, 60.3215914 ], [ 25.0751925, 60.3213745 ], [ 25.0753339, 60.321508 ], [ 25.0767439, 60.3211764 ], [ 25.0765895, 60.3209603 ], [ 25.0781272, 60.3204123 ], [ 25.0792436, 60.3206598 ], [ 25.0796422, 60.321073 ], [ 25.0805422, 60.321982 ], [ 25.0811381, 60.3226335 ], [ 25.0825524, 60.3222148 ], [ 25.0825587, 60.3222202 ], [ 25.0825839, 60.3220808 ], [ 25.0834213, 60.3218547 ], [ 25.0861731, 60.3213186 ], [ 25.0863419, 60.3217697 ], [ 25.0865121, 60.3227789 ], [ 25.0869684, 60.323301 ], [ 25.0878091, 60.3243216 ], [ 25.0885536, 60.3251522 ], [ 25.0894649, 60.3256859 ], [ 25.0893941, 60.3260422 ], [ 25.0885574, 60.3265414 ], [ 25.0882232, 60.3269453 ], [ 25.0885359, 60.3274557 ], [ 25.0893031, 60.3277876 ], [ 25.0904285, 60.3277869 ], [ 25.0913394, 60.3281306 ], [ 25.0912558, 60.3282833 ], [ 25.0912744, 60.3282801 ], [ 25.0917904, 60.3286959 ] ] ] } },
{ "type": "Feature", "properties": { "Koulu": "Mikkola", "Tunnus": "Mikkolan koulu" }, "geometry": { "type": "Polygon", "coordinates": [ [ [ 25.105842, 60.3500747 ], [ 25.1027193, 60.349849 ], [ 25.1029182, 60.3487223 ], [ 25.0957598, 60.3480906 ], [ 25.0954332, 60.3487522 ], [ 25.093062, 60.3485366 ], [ 25.092992, 60.348936 ], [ 25.0898741, 60.3487267 ], [ 25.0869934, 60.3485642 ], [ 25.0846699, 60.348413 ], [ 25.0845147, 60.3480137 ], [ 25.0845715, 60.3478517 ], [ 25.0845678, 60.3478514 ], [ 25.0845098, 60.347031 ], [ 25.084206, 60.346074 ], [ 25.0792406, 60.3468222 ], [ 25.0760605, 60.3468619 ], [ 25.0744332, 60.3436855 ], [ 25.0738198, 60.3424881 ], [ 25.073801, 60.3424898 ], [ 25.0737988, 60.3424529 ], [ 25.0706056, 60.3362872 ], [ 25.0889284, 60.3332366 ], [ 25.0922994, 60.3328244 ], [ 25.093094, 60.3331714 ], [ 25.095479, 60.3335229 ], [ 25.0966167, 60.3339131 ], [ 25.0993219, 60.3338247 ], [ 25.1001542, 60.3334877 ], [ 25.1007727, 60.3333945 ], [ 25.101752, 60.3334744 ], [ 25.1025946, 60.3334455 ], [ 25.1049337, 60.3337918 ], [ 25.1021619, 60.3352589 ], [ 25.10218, 60.3352593 ], [ 25.1137791, 60.3355359 ], [ 25.1174281, 60.3356212 ], [ 25.1172849, 60.3366625 ], [ 25.1201154, 60.3382981 ], [ 25.1201547, 60.3398285 ], [ 25.1199577, 60.3417737 ], [ 25.1237852, 60.3419187 ], [ 25.1246147, 60.3405485 ], [ 25.1246727, 60.3399658 ], [ 25.1269178, 60.3400342 ], [ 25.1271875, 60.3373906 ], [ 25.123012, 60.3356517 ], [ 25.1238511, 60.3347959 ], [ 25.1325756, 60.3350491 ], [ 25.1432095, 60.3353568 ], [ 25.1433579, 60.3362937 ], [ 25.1457532, 60.3372042 ], [ 25.1490831, 60.3381698 ], [ 25.1517252, 60.3398563 ], [ 25.1520962, 60.3403941 ], [ 25.1519714, 60.341304 ], [ 25.1516598, 60.3421028 ], [ 25.1526283, 60.3438061 ], [ 25.1527052, 60.3453387 ], [ 25.152381, 60.3461384 ], [ 25.1420682, 60.3459566 ], [ 25.1419168, 60.3472096 ], [ 25.135047, 60.347203 ], [ 25.1326841, 60.3463047 ], [ 25.1277077, 60.3454148 ], [ 25.1276976, 60.3454146 ], [ 25.12086, 60.3452989 ], [ 25.1141126, 60.3442766 ], [ 25.1104947, 60.3440226 ], [ 25.109985, 60.3491515 ], [ 25.1063305, 60.3490214 ], [ 25.105842, 60.3500747 ] ] ] } },
{ "type": "Feature", "properties": { "Koulu": "Leppäkorpi", "Tunnus": "Leppäkorven koulu" }, "geometry": { "type": "Polygon", "coordinates": [ [ [ 25.0957598, 60.3480906 ], [ 25.1029182, 60.3487223 ], [ 25.1027193, 60.349849 ], [ 25.105842, 60.3500747 ], [ 25.1063305, 60.3490214 ], [ 25.109985, 60.3491515 ], [ 25.1104947, 60.3440226 ], [ 25.1141126, 60.3442766 ], [ 25.12086, 60.3452989 ], [ 25.1277077, 60.3454148 ], [ 25.1326841, 60.3463047 ], [ 25.135047, 60.347203 ], [ 25.1349201, 60.3472029 ], [ 25.1344087, 60.3485039 ], [ 25.1517048, 60.3592901 ], [ 25.1315874, 60.3590866 ], [ 25.1314928, 60.360153 ], [ 25.1240452, 60.3600037 ], [ 25.1240016, 60.360395 ], [ 25.1171109, 60.3602242 ], [ 25.1170547, 60.36035 ], [ 25.1169549, 60.3605733 ], [ 25.1153352, 60.3605767 ], [ 25.1162048, 60.3622059 ], [ 25.1154613, 60.3638286 ], [ 25.1157254, 60.3646103 ], [ 25.115121, 60.364542 ], [ 25.1145983, 60.3657003 ], [ 25.0903525, 60.3663096 ], [ 25.0895895, 60.3664344 ], [ 25.0865182, 60.3634138 ], [ 25.0864666, 60.3634266 ], [ 25.0864458, 60.3632262 ], [ 25.0855498, 60.3623313 ], [ 25.0826654, 60.3592163 ], [ 25.0805727, 60.3557761 ], [ 25.0746748, 60.356142 ], [ 25.0722859, 60.3542101 ], [ 25.0726056, 60.3517666 ], [ 25.0726573, 60.3506389 ], [ 25.0722754, 60.3494845 ], [ 25.0722162, 60.3472023 ], [ 25.0751409, 60.3467174 ], [ 25.0760846, 60.3469231 ], [ 25.0761294, 60.346861 ], [ 25.0792406, 60.3468222 ], [ 25.084206, 60.346074 ], [ 25.0845098, 60.347031 ], [ 25.0845678, 60.3478514 ], [ 25.0845715, 60.3478517 ], [ 25.0845147, 60.3480137 ], [ 25.0846699, 60.348413 ], [ 25.0869934, 60.3485642 ], [ 25.0898741, 60.3487267 ], [ 25.092992, 60.348936 ], [ 25.093062, 60.3485366 ], [ 25.0954332, 60.3487522 ], [ 25.0957598, 60.3480906 ] ] ] } },
{ "type": "Feature", "properties": { "Koulu": "Länsimäki", "Tunnus": "Länsimäen koulu" }, "geometry": { "type": "Polygon", "coordinates": [ [ [ 25.1598515, 60.2488439 ], [ 25.1595571, 60.2492222 ], [ 25.1598236, 60.2497476 ], [ 25.1589893, 60.2509318 ], [ 25.1573676, 60.2510812 ], [ 25.1570748, 60.2536188 ], [ 25.1576653, 60.2538888 ], [ 25.155632, 60.2549577 ], [ 25.1549728, 60.2548938 ], [ 25.1543639, 60.2554367 ], [ 25.1547194, 60.2556901 ], [ 25.1541246, 60.2564783 ], [ 25.1526992, 60.2568482 ], [ 25.1504723, 60.2581636 ], [ 25.1470931, 60.2582547 ], [ 25.1445935, 60.2592383 ], [ 25.143992, 60.2603094 ], [ 25.1442953, 60.2607603 ], [ 25.1442383, 60.2609128 ], [ 25.1357383, 60.2590007 ], [ 25.1256072, 60.2575628 ], [ 25.1170812, 60.2629724 ], [ 25.1051787, 60.2672212 ], [ 25.0949964, 60.272572 ], [ 25.087715, 60.2743812 ], [ 25.0857656, 60.2720965 ], [ 25.0879343, 60.2712814 ], [ 25.0890858, 60.2678094 ], [ 25.0863249, 60.260631 ], [ 25.0874971, 60.2593118 ], [ 25.0847276, 60.2541427 ], [ 25.0824068, 60.2497081 ], [ 25.0913493, 60.245193 ], [ 25.1027481, 60.243156 ], [ 25.1059698, 60.242565 ], [ 25.1295779, 60.2382233 ], [ 25.1295685, 60.2379676 ], [ 25.1353918, 60.2371844 ], [ 25.1354677, 60.2372457 ], [ 25.1363022, 60.2376607 ], [ 25.1376205, 60.2396283 ], [ 25.1385776, 60.2406119 ], [ 25.1389861, 60.2409092 ], [ 25.1407343, 60.2426832 ], [ 25.141713, 60.243463 ], [ 25.1416723, 60.2438791 ], [ 25.1431657, 60.2447176 ], [ 25.1451835, 60.2452836 ], [ 25.1483497, 60.2455301 ], [ 25.1501155, 60.2454225 ], [ 25.1520619, 60.2460585 ], [ 25.1522679, 60.2458974 ], [ 25.1552863, 60.2467568 ], [ 25.1583227, 60.2484566 ], [ 25.1598515, 60.2488439 ] ] ] } },
{ "type": "Feature", "properties": { "Koulu": "Jokiniemi", "Tunnus": "Jokiniemen koulu" }, "geometry": { "type": "Polygon", "coordinates": [ [ [ 25.0930598, 60.310819 ], [ 25.0919901, 60.3117042 ], [ 25.0891864, 60.3129389 ], [ 25.086565, 60.3136027 ], [ 25.0854595, 60.3132153 ], [ 25.0853366, 60.3119731 ], [ 25.0833556, 60.3107461 ], [ 25.0770337, 60.3104057 ], [ 25.0747964, 60.3096165 ], [ 25.0728439, 60.3103235 ], [ 25.0715087, 60.3100503 ], [ 25.0689356, 60.308447 ], [ 25.0689579, 60.3068024 ], [ 25.0697267, 60.3049187 ], [ 25.0689526, 60.3042784 ], [ 25.0668456, 60.3041137 ], [ 25.0660201, 60.3037066 ], [ 25.0611644, 60.3061789 ], [ 25.0588027, 60.3068605 ], [ 25.0547946, 60.3100345 ], [ 25.0527489, 60.3108473 ], [ 25.0489132, 60.3026534 ], [ 25.0488983, 60.302655 ], [ 25.0488841, 60.3025366 ], [ 25.0471718, 60.2987219 ], [ 25.0412396, 60.2995075 ], [ 25.0410555, 60.2995112 ], [ 25.0393757, 60.2963112 ], [ 25.0393967, 60.2963033 ], [ 25.039152, 60.2962051 ], [ 25.0372245, 60.292558 ], [ 25.0355849, 60.2893954 ], [ 25.0385696, 60.2892236 ], [ 25.0404936, 60.2900636 ], [ 25.0430235, 60.2899956 ], [ 25.0406274, 60.2850027 ], [ 25.0406227, 60.2849932 ], [ 25.0408503, 60.2847468 ], [ 25.0406189, 60.2841472 ], [ 25.0407033, 60.2840669 ], [ 25.0415294, 60.2832975 ], [ 25.0422288, 60.2831669 ], [ 25.0433778, 60.2819159 ], [ 25.0422357, 60.2815212 ], [ 25.0437186, 60.2798722 ], [ 25.0441534, 60.2800248 ], [ 25.04507, 60.2792889 ], [ 25.0451306, 60.2785541 ], [ 25.0457072, 60.2784277 ], [ 25.0460147, 60.2788818 ], [ 25.0470483, 60.2777091 ], [ 25.0506232, 60.2783307 ], [ 25.0533653, 60.2760255 ], [ 25.0546941, 60.2759394 ], [ 25.0559826, 60.2806758 ], [ 25.0584466, 60.2859159 ], [ 25.0615261, 60.2850216 ], [ 25.0665958, 60.2849717 ], [ 25.0705163, 60.2843047 ], [ 25.0757743, 60.282972 ], [ 25.0791816, 60.2820658 ], [ 25.0810003, 60.2882408 ], [ 25.0835625, 60.2937118 ], [ 25.0852789, 60.2964783 ], [ 25.0863867, 60.2992798 ], [ 25.0918536, 60.3035981 ], [ 25.0942051, 60.3058524 ], [ 25.0938355, 60.3081562 ], [ 25.0952939, 60.3088453 ], [ 25.0952903, 60.3088481 ], [ 25.0930598, 60.310819 ] ] ] } },
{ "type": "Feature", "properties": { "Koulu": "Lehtikuusi", "Tunnus": "Lehtikuusen koulu" }, "geometry": { "type": "Polygon", "coordinates": [ [ [ 25.1036095, 60.2834143 ], [ 25.1036005, 60.2834125 ], [ 25.1035918, 60.2851389 ], [ 25.1030142, 60.2864181 ], [ 25.1015656, 60.287783 ], [ 25.0960823, 60.2860048 ], [ 25.0933267, 60.2851878 ], [ 25.0808834, 60.2878441 ], [ 25.0791816, 60.2820658 ], [ 25.0757743, 60.282972 ], [ 25.0705163, 60.2843047 ], [ 25.0665958, 60.2849717 ], [ 25.0615261, 60.2850216 ], [ 25.0584466, 60.2859159 ], [ 25.0559826, 60.2806758 ], [ 25.0546941, 60.2759394 ], [ 25.0565966, 60.2758162 ], [ 25.0615376, 60.2763856 ], [ 25.0623377, 60.2754483 ], [ 25.0684622, 60.275043 ], [ 25.0763583, 60.2755297 ], [ 25.0766181, 60.2755593 ], [ 25.0847005, 60.2724969 ], [ 25.0857656, 60.2720965 ], [ 25.087715, 60.2743812 ], [ 25.0949964, 60.272572 ], [ 25.1051787, 60.2672212 ], [ 25.1170812, 60.2629724 ], [ 25.1256072, 60.2575628 ], [ 25.1357383, 60.2590007 ], [ 25.1442383, 60.2609128 ], [ 25.1440875, 60.2613165 ], [ 25.1440448, 60.261438 ], [ 25.1424496, 60.2632059 ], [ 25.1378639, 60.2638699 ], [ 25.1334783, 60.2667621 ], [ 25.1279031, 60.2720869 ], [ 25.122558, 60.2746662 ], [ 25.1193324, 60.2764549 ], [ 25.1155691, 60.2777596 ], [ 25.1136229, 60.2791386 ], [ 25.1136817, 60.2795565 ], [ 25.1131292, 60.2801839 ], [ 25.1132643, 60.2805352 ], [ 25.113227, 60.2808107 ], [ 25.1125389, 60.2815993 ], [ 25.1117627, 60.2814294 ], [ 25.1100277, 60.2809879 ], [ 25.1092733, 60.2818744 ], [ 25.1077761, 60.2821096 ], [ 25.1079112, 60.28226 ], [ 25.1075245, 60.2823689 ], [ 25.1057408, 60.2825208 ], [ 25.1033867, 60.2832247 ], [ 25.1036095, 60.2834143 ] ] ] } },
{ "type": "Feature", "properties": { "Koulu": "Martinlaakso", "Tunnus": "Martinlaakson koulu" }, "geometry": { "type": "Polygon", "coordinates": [ [ [ 24.8564883, 60.2764182 ], [ 24.8546211, 60.2764554 ], [ 24.8540471, 60.2764927 ], [ 24.8548401, 60.2788303 ], [ 24.8545663, 60.2801789 ], [ 24.8524145, 60.2822662 ], [ 24.8501461, 60.2846954 ], [ 24.8488784, 60.2857769 ], [ 24.8474994, 60.2867773 ], [ 24.8463403, 60.2883431 ], [ 24.8454677, 60.2907999 ], [ 24.8448438, 60.2922747 ], [ 24.8419548, 60.2920132 ], [ 24.8401681, 60.2913852 ], [ 24.835175, 60.2881006 ], [ 24.8326434, 60.2866383 ], [ 24.8285283, 60.2845063 ], [ 24.8285282, 60.2845062 ], [ 24.8297198, 60.2843669 ], [ 24.8320127, 60.2842338 ], [ 24.8336759, 60.283796 ], [ 24.834708, 60.2830057 ], [ 24.8355348, 60.2816704 ], [ 24.8357861, 60.2802675 ], [ 24.8354807, 60.2757804 ], [ 24.8351964, 60.2709559 ], [ 24.8351982, 60.2709379 ], [ 24.8392948, 60.2718398 ], [ 24.8405161, 60.2707452 ], [ 24.841364, 60.2684012 ], [ 24.841799, 60.2669879 ], [ 24.8544089, 60.2671108 ], [ 24.8561433, 60.2667565 ], [ 24.8582941, 60.2668181 ], [ 24.8579873, 60.2686582 ], [ 24.8596009, 60.2686303 ], [ 24.8642127, 60.2660525 ], [ 24.8648131, 60.2653704 ], [ 24.864728, 60.2648056 ], [ 24.865281, 60.2648062 ], [ 24.8676151, 60.2638289 ], [ 24.8724591, 60.262676 ], [ 24.8757458, 60.2624713 ], [ 24.8750736, 60.2664187 ], [ 24.8742768, 60.2716423 ], [ 24.872009, 60.2739087 ], [ 24.872016, 60.2739082 ], [ 24.871976, 60.2741222 ], [ 24.8701307, 60.2759096 ], [ 24.8701207, 60.2748772 ], [ 24.8683188, 60.2746109 ], [ 24.8652048, 60.2745365 ], [ 24.8636882, 60.2746571 ], [ 24.8617214, 60.2746449 ], [ 24.8610852, 60.2748884 ], [ 24.8600606, 60.2749382 ], [ 24.8561879, 60.2750257 ], [ 24.857105, 60.2761257 ], [ 24.8564883, 60.2764182 ] ] ] } },
{ "type": "Feature", "properties": { "Koulu": "Aurinkokivi", "Tunnus": "Aurinkokiven koulu" }, "geometry": { "type": "Polygon", "coordinates": [ [ [ 24.8420895, 60.3302346 ], [ 24.838638, 60.332173 ], [ 24.8367099, 60.3354146 ], [ 24.8310599, 60.3395633 ], [ 24.8233815, 60.3419874 ], [ 24.815358, 60.3416797 ], [ 24.8124615, 60.3454751 ], [ 24.8101541, 60.3508743 ], [ 24.8085611, 60.3569275 ], [ 24.8090154, 60.3612026 ], [ 24.8098263, 60.3660125 ], [ 24.8129085, 60.372013 ], [ 24.814915, 60.3775963 ], [ 24.8157319, 60.381575 ], [ 24.8153841, 60.3846415 ], [ 24.8138713, 60.383656 ], [ 24.8070175, 60.3791897 ], [ 24.7830427, 60.3635302 ], [ 24.7831691, 60.3587093 ], [ 24.7821609, 60.3588465 ], [ 24.7819364, 60.3588771 ], [ 24.7804122, 60.3618025 ], [ 24.7657802, 60.3521674 ], [ 24.7492565, 60.3417952 ], [ 24.7470118, 60.3268767 ], [ 24.7462097, 60.3222861 ], [ 24.760901, 60.3253881 ], [ 24.7609654, 60.3252333 ], [ 24.8101667, 60.3080786 ], [ 24.8239348, 60.2916353 ], [ 24.824026, 60.2905066 ], [ 24.8235052, 60.2888175 ], [ 24.8245709, 60.2869641 ], [ 24.8270558, 60.2849536 ], [ 24.828432, 60.2845174 ], [ 24.8285282, 60.2845062 ], [ 24.8285283, 60.2845063 ], [ 24.8326434, 60.2866383 ], [ 24.835175, 60.2881006 ], [ 24.8401681, 60.2913852 ], [ 24.8419548, 60.2920132 ], [ 24.8456657, 60.2923492 ], [ 24.8548373, 60.2922106 ], [ 24.8568584, 60.2925572 ], [ 24.8696924, 60.2969885 ], [ 24.8741403, 60.2977583 ], [ 24.8811486, 60.2979517 ], [ 24.8841109, 60.2979414 ], [ 24.8841405, 60.2994272 ], [ 24.8839742, 60.3000098 ], [ 24.8824374, 60.3018409 ], [ 24.8826191, 60.3045745 ], [ 24.8837437, 60.3062024 ], [ 24.8852261, 60.3070773 ], [ 24.8869697, 60.307602 ], [ 24.8893737, 60.3085779 ], [ 24.8903123, 60.3093224 ], [ 24.8925539, 60.3082885 ], [ 24.8949684, 60.3076556 ], [ 24.9001281, 60.3066556 ], [ 24.9058407, 60.3041502 ], [ 24.9083647, 60.3035969 ], [ 24.9167019, 60.3036859 ], [ 24.9209687, 60.3074224 ], [ 24.9193235, 60.3080158 ], [ 24.9146544, 60.3089627 ], [ 24.9102258, 60.3094348 ], [ 24.9014914, 60.3091614 ], [ 24.8953871, 60.3096614 ], [ 24.8928722, 60.3102827 ], [ 24.8870004, 60.3126823 ], [ 24.8808292, 60.3149032 ], [ 24.8678287, 60.3186607 ], [ 24.8678285, 60.3186964 ], [ 24.8674409, 60.3187028 ], [ 24.8670191, 60.3188164 ], [ 24.8637999, 60.3192311 ], [ 24.8597019, 60.3191509 ], [ 24.8573988, 60.3202693 ], [ 24.8566304, 60.3208004 ], [ 24.8556712, 60.3211603 ], [ 24.8552495, 60.3212548 ], [ 24.8537923, 60.3215952 ], [ 24.8533696, 60.3218987 ], [ 24.8532785, 60.3228986 ], [ 24.8533914, 60.3230916 ], [ 24.8534464, 60.323193 ], [ 24.8533666, 60.3233884 ], [ 24.8527671, 60.3236134 ], [ 24.851258, 60.3237661 ], [ 24.8500118, 60.324014 ], [ 24.8488853, 60.3243553 ], [ 24.8491086, 60.3245222 ], [ 24.8492087, 60.3249663 ], [ 24.848299, 60.3249416 ], [ 24.8475328, 60.3249407 ], [ 24.8468601, 60.3254149 ], [ 24.8465498, 60.3257114 ], [ 24.8453661, 60.32535 ], [ 24.8435671, 60.3244934 ], [ 24.8422822, 60.3250582 ], [ 24.8409961, 60.3258515 ], [ 24.8403715, 60.3257527 ], [ 24.839261, 60.3267131 ], [ 24.8398234, 60.326921 ], [ 24.8388836, 60.3288465 ], [ 24.8420895, 60.3302346 ] ] ] } }
]
}
